[
    { 
        "_id" : "5756675cf9e03a5be680e02d", 
        "zip" : "10100", 
        "district" : "Samphanthawong", 
        "province" : "Bangkok"
    },
    { 
        "_id" : "5756675cf9e03a5be680e02e", 
        "zip" : "10100", 
        "district" : "Pom Prap Sattru Phai", 
        "province" : "Bangkok"
    },
    { 
        "_id" : "5756675cf9e03a5be680e02f", 
        "zip" : "10110", 
        "district" : "Wattana", 
        "province" : "Bangkok"
    },
    { 
        "_id" : "5756675cf9e03a5be680e030", 
        "zip" : "10120", 
        "district" : "Bang Kholame", 
        "province" : "Bangkok"
    },
    { 
        "_id" : "5756675cf9e03a5be680e031", 
        "zip" : "10120", 
        "district" : "Yannawa", 
        "province" : "Bangkok"
    },
    { 
        "_id" : "5756675cf9e03a5be680e032", 
        "zip" : "10140", 
        "district" : "Rat Burana", 
        "province" : "Bangkok"
    },
    { 
        "_id" : "5756675cf9e03a5be680e033", 
        "zip" : "10140", 
        "district" : "Thung Khru", 
        "province" : "Bangkok"
    },
    { 
        "_id" : "5756675cf9e03a5be680e034", 
        "zip" : "10150", 
        "district" : "Bang Bon", 
        "province" : "Bangkok"
    },
    { 
        "_id" : "5756675cf9e03a5be680e035", 
        "zip" : "10150", 
        "district" : "Bang Khun Thian", 
        "province" : "Bangkok"
    },
    { 
        "_id" : "5756675cf9e03a5be680e036", 
        "zip" : "10160", 
        "district" : "Bang Khae", 
        "province" : "Bangkok"
    },
    { 
        "_id" : "5756675cf9e03a5be680e037", 
        "zip" : "10160", 
        "district" : "Phasi Charoen", 
        "province" : "Bangkok"
    },
    { 
        "_id" : "5756675cf9e03a5be680e038", 
        "zip" : "10160", 
        "district" : "Nong Khaem", 
        "province" : "Bangkok"
    },
    { 
        "_id" : "5756675cf9e03a5be680e039", 
        "zip" : "10170", 
        "district" : "Thawi Wattana", 
        "province" : "Bangkok"
    },
    { 
        "_id" : "5756675cf9e03a5be680e03a", 
        "zip" : "10170", 
        "district" : "Taling Chan", 
        "province" : "Bangkok"
    },
    { 
        "_id" : "5756675cf9e03a5be680e03b", 
        "zip" : "10200", 
        "district" : "Phra Nakhon", 
        "province" : "Bangkok"
    },
    { 
        "_id" : "5756675cf9e03a5be680e03c", 
        "zip" : "10210", 
        "district" : "Lak Si", 
        "province" : "Bangkok"
    },
    { 
        "_id" : "5756675cf9e03a5be680e03d", 
        "zip" : "10220", 
        "district" : "Sai Mai", 
        "province" : "Bangkok"
    },
    { 
        "_id" : "5756675cf9e03a5be680e03e", 
        "zip" : "10220", 
        "district" : "Bang Khen", 
        "province" : "Bangkok"
    },
    { 
        "_id" : "5756675cf9e03a5be680e03f", 
        "zip" : "10230", 
        "district" : "Lat Phrao", 
        "province" : "Bangkok"
    },
    { 
        "_id" : "5756675cf9e03a5be680e040", 
        "zip" : "10230", 
        "district" : "Khanna Yao", 
        "province" : "Bangkok"
    },
    { 
        "_id" : "5756675cf9e03a5be680e041", 
        "zip" : "10240", 
        "district" : "Bang Kapi", 
        "province" : "Bangkok"
    },
    { 
        "_id" : "5756675cf9e03a5be680e042", 
        "zip" : "10240", 
        "district" : "Bueng Kum", 
        "province" : "Bangkok"
    },
    { 
        "_id" : "5756675cf9e03a5be680e043", 
        "zip" : "10240", 
        "district" : "Saphan Sung B39", 
        "province" : "Bangkok"
    },
    { 
        "_id" : "5756675cf9e03a5be680e044", 
        "zip" : "10250", 
        "district" : "Suang Luang", 
        "province" : "Bangkok"
    },
    { 
        "_id" : "5756675cf9e03a5be680e045", 
        "zip" : "10250", 
        "district" : "Pra Vet", 
        "province" : "Bangkok"
    },
    { 
        "_id" : "5756675cf9e03a5be680e046", 
        "zip" : "10260", 
        "district" : "Bang Na", 
        "province" : "Bangkok"
    },
    { 
        "_id" : "5756675cf9e03a5be680e047", 
        "zip" : "10260", 
        "district" : "Phra Khanong", 
        "province" : "Bangkok"
    },
    { 
        "_id" : "5756675cf9e03a5be680e048", 
        "zip" : "10300", 
        "district" : "Dusit", 
        "province" : "Bangkok"
    },
    { 
        "_id" : "5756675cf9e03a5be680e049", 
        "zip" : "10310", 
        "district" : "Wangthong Lang", 
        "province" : "Bangkok"
    },
    { 
        "_id" : "5756675cf9e03a5be680e04a", 
        "zip" : "10320", 
        "district" : "Huai Khwang", 
        "province" : "Bangkok"
    },
    { 
        "_id" : "5756675cf9e03a5be680e04b", 
        "zip" : "10330", 
        "district" : "Pathum Wan", 
        "province" : "Bangkok"
    },
    { 
        "_id" : "5756675cf9e03a5be680e04c", 
        "zip" : "10400", 
        "district" : "Phaya Thai", 
        "province" : "Bangkok"
    },
    { 
        "_id" : "5756675cf9e03a5be680e04d", 
        "zip" : "10400", 
        "district" : "Ding Daeng", 
        "province" : "Bangkok"
    },
    { 
        "_id" : "5756675cf9e03a5be680e04e", 
        "zip" : "10500", 
        "district" : "Bang Rak", 
        "province" : "Bangkok"
    },
    { 
        "_id" : "5756675cf9e03a5be680e04f", 
        "zip" : "10510", 
        "district" : "Min Buri", 
        "province" : "Bangkok"
    },
    { 
        "_id" : "5756675cf9e03a5be680e050", 
        "zip" : "10510", 
        "district" : "Khlong Samwa", 
        "province" : "Bangkok"
    },
    { 
        "_id" : "5756675cf9e03a5be680e051", 
        "zip" : "10520", 
        "district" : "Lat Krabang", 
        "province" : "Bangkok"
    },
    { 
        "_id" : "5756675cf9e03a5be680e052", 
        "zip" : "10530", 
        "district" : "Nong Chok", 
        "province" : "Bangkok"
    },
    { 
        "_id" : "5756675cf9e03a5be680e053", 
        "zip" : "10600", 
        "district" : "Khlong San", 
        "province" : "Bangkok"
    },
    { 
        "_id" : "5756675cf9e03a5be680e054", 
        "zip" : "10600", 
        "district" : "Thon Buri", 
        "province" : "Bangkok"
    },
    { 
        "_id" : "5756675cf9e03a5be680e055", 
        "zip" : "10600", 
        "district" : "Bangkok Yai", 
        "province" : "Bangkok"
    },
    { 
        "_id" : "5756675cf9e03a5be680e056", 
        "zip" : "10700", 
        "district" : "Bang Plat", 
        "province" : "Bangkok"
    },
    { 
        "_id" : "5756675cf9e03a5be680e057", 
        "zip" : "10700", 
        "district" : "Bangkok Noi", 
        "province" : "Bangkok"
    },
    { 
        "_id" : "5756675cf9e03a5be680e058", 
        "zip" : "10800", 
        "district" : "Bang Su", 
        "province" : "Bangkok"
    },
    { 
        "_id" : "5756675cf9e03a5be680e059", 
        "zip" : "10130", 
        "district" : "Phra Pradaeng", 
        "province" : "Samut Prakan"
    },
    { 
        "_id" : "5756675cf9e03a5be680e05a", 
        "zip" : "10270", 
        "district" : "Mueang Samut Prakan", 
        "province" : "Samut Prakan"
    },
    { 
        "_id" : "5756675cf9e03a5be680e05b", 
        "zip" : "10290", 
        "district" : "Phra Samut Chedi", 
        "province" : "Samut Prakan"
    },
    { 
        "_id" : "5756675cf9e03a5be680e05c", 
        "zip" : "10540", 
        "district" : "Bang Sao Thong", 
        "province" : "Samut Prakan"
    },
    { 
        "_id" : "5756675cf9e03a5be680e05d", 
        "zip" : "10540", 
        "district" : "Bang Phli", 
        "province" : "Samut Prakan"
    },
    { 
        "_id" : "5756675cf9e03a5be680e05e", 
        "zip" : "10560", 
        "district" : "Bang Bo", 
        "province" : "Samut Prakan"
    },
    { 
        "_id" : "5756675cf9e03a5be680e05f", 
        "zip" : "11000", 
        "district" : "Mueang Nonthaburi", 
        "province" : "Nonthaburi"
    },
    { 
        "_id" : "5756675cf9e03a5be680e060", 
        "zip" : "11110", 
        "district" : "Bang Bua Thong", 
        "province" : "Nonthaburi"
    },
    { 
        "_id" : "5756675cf9e03a5be680e061", 
        "zip" : "11120", 
        "district" : "Pak Kret", 
        "province" : "Nonthaburi"
    },
    { 
        "_id" : "5756675cf9e03a5be680e062", 
        "zip" : "11130", 
        "district" : "Bang Kruai", 
        "province" : "Nonthaburi"
    },
    { 
        "_id" : "5756675cf9e03a5be680e063", 
        "zip" : "11140", 
        "district" : "Bang Yai", 
        "province" : "Nonthaburi"
    },
    { 
        "_id" : "5756675cf9e03a5be680e064", 
        "zip" : "11150", 
        "district" : "Sai Noi", 
        "province" : "Nonthaburi"
    },
    { 
        "_id" : "5756675cf9e03a5be680e065", 
        "zip" : "12000", 
        "district" : "Mueang Pathum Thani", 
        "province" : "Pathum Thani"
    },
    { 
        "_id" : "5756675cf9e03a5be680e066", 
        "zip" : "12110", 
        "district" : "Thanyaburi", 
        "province" : "Pathum Thani"
    },
    { 
        "_id" : "5756675cf9e03a5be680e067", 
        "zip" : "12120", 
        "district" : "Khlong Luang", 
        "province" : "Pathum Thani"
    },
    { 
        "_id" : "5756675cf9e03a5be680e068", 
        "zip" : "12140", 
        "district" : "Lat Lum Kaeo", 
        "province" : "Pathum Thani"
    },
    { 
        "_id" : "5756675cf9e03a5be680e069", 
        "zip" : "12150", 
        "district" : "Lam Luk Ka", 
        "province" : "Pathum Thani"
    },
    { 
        "_id" : "5756675cf9e03a5be680e06a", 
        "zip" : "12160", 
        "district" : "Sam Khok", 
        "province" : "Pathum Thani"
    },
    { 
        "_id" : "5756675cf9e03a5be680e06b", 
        "zip" : "12170", 
        "district" : "Nong Suea", 
        "province" : "Pathum Thani"
    },
    { 
        "_id" : "5756675cf9e03a5be680e06c", 
        "zip" : "14000", 
        "district" : "Mueang ANG THONG", 
        "province" : "Ang Thong"
    },
    { 
        "_id" : "5756675cf9e03a5be680e06d", 
        "zip" : "14110", 
        "district" : "Wiset Chai Chan", 
        "province" : "Ang Thong"
    },
    { 
        "_id" : "5756675cf9e03a5be680e06e", 
        "zip" : "14120", 
        "district" : "Pho Thong", 
        "province" : "Ang Thong"
    },
    { 
        "_id" : "5756675cf9e03a5be680e06f", 
        "zip" : "14130", 
        "district" : "Pa Mok", 
        "province" : "Ang Thong"
    },
    { 
        "_id" : "5756675cf9e03a5be680e070", 
        "zip" : "14140", 
        "district" : "Chaiyo", 
        "province" : "Ang Thong"
    },
    { 
        "_id" : "5756675cf9e03a5be680e071", 
        "zip" : "14150", 
        "district" : "Sawaengha", 
        "province" : "Ang Thong"
    },
    { 
        "_id" : "5756675cf9e03a5be680e072", 
        "zip" : "14160", 
        "district" : "Samko", 
        "province" : "Ang Thong"
    },
    { 
        "_id" : "5756675cf9e03a5be680e073", 
        "zip" : "18000", 
        "district" : "Mueang Saraburi", 
        "province" : "Saraburi"
    },
    { 
        "_id" : "5756675cf9e03a5be680e074", 
        "zip" : "18000", 
        "district" : "Chaloem Phra Kiat", 
        "province" : "Saraburi"
    },
    { 
        "_id" : "5756675cf9e03a5be680e075", 
        "zip" : "18110", 
        "district" : "Kaeng Khoi", 
        "province" : "Saraburi"
    },
    { 
        "_id" : "5756675cf9e03a5be680e076", 
        "zip" : "18120", 
        "district" : "Phra Phutthabat", 
        "province" : "Saraburi"
    },
    { 
        "_id" : "5756675cf9e03a5be680e077", 
        "zip" : "18130", 
        "district" : "Ban Mo", 
        "province" : "Saraburi"
    },
    { 
        "_id" : "5756675cf9e03a5be680e078", 
        "zip" : "18140", 
        "district" : "Nong Khae", 
        "province" : "Saraburi"
    },
    { 
        "_id" : "5756675cf9e03a5be680e079", 
        "zip" : "18150", 
        "district" : "Wihan Daeng", 
        "province" : "Saraburi"
    },
    { 
        "_id" : "5756675cf9e03a5be680e07a", 
        "zip" : "18160", 
        "district" : "Sao Hai", 
        "province" : "Saraburi"
    },
    { 
        "_id" : "5756675cf9e03a5be680e07b", 
        "zip" : "18170", 
        "district" : "Nong Saeng", 
        "province" : "Saraburi"
    },
    { 
        "_id" : "5756675cf9e03a5be680e07c", 
        "zip" : "18180", 
        "district" : "Muak Lek", 
        "province" : "Saraburi"
    },
    { 
        "_id" : "5756675cf9e03a5be680e07d", 
        "zip" : "18190", 
        "district" : "Nong Don", 
        "province" : "Saraburi"
    },
    { 
        "_id" : "5756675cf9e03a5be680e07e", 
        "zip" : "18210", 
        "district" : "Don Phut", 
        "province" : "Saraburi"
    },
    { 
        "_id" : "5756675cf9e03a5be680e07f", 
        "zip" : "18220", 
        "district" : "Wang Muang", 
        "province" : "Saraburi"
    },
    { 
        "_id" : "5756675cf9e03a5be680e080", 
        "zip" : "21000", 
        "district" : "Mueang Rayong", 
        "province" : "Rayong"
    },
    { 
        "_id" : "5756675cf9e03a5be680e081", 
        "zip" : "21110", 
        "district" : "Klaeng", 
        "province" : "Rayong"
    },
    { 
        "_id" : "5756675cf9e03a5be680e082", 
        "zip" : "21110", 
        "district" : "Khao Chamao", 
        "province" : "Rayong"
    },
    { 
        "_id" : "5756675cf9e03a5be680e083", 
        "zip" : "21120", 
        "district" : "Ban Khai", 
        "province" : "Rayong"
    },
    { 
        "_id" : "5756675cf9e03a5be680e084", 
        "zip" : "21130", 
        "district" : "Ban Chang", 
        "province" : "Rayong"
    },
    { 
        "_id" : "5756675cf9e03a5be680e085", 
        "zip" : "21140", 
        "district" : "Pluak Daeng", 
        "province" : "Rayong"
    },
    { 
        "_id" : "5756675cf9e03a5be680e086", 
        "zip" : "21180", 
        "district" : "Nikhom Phatthana", 
        "province" : "Rayong"
    },
    { 
        "_id" : "5756675cf9e03a5be680e087", 
        "zip" : "21210", 
        "district" : "Wang Chan", 
        "province" : "Rayong"
    },
    { 
        "_id" : "5756675cf9e03a5be680e088", 
        "zip" : "22000", 
        "district" : "Mueang Chanthaburi", 
        "province" : "Chanthaburi"
    },
    { 
        "_id" : "5756675cf9e03a5be680e089", 
        "zip" : "22110", 
        "district" : "Khlung", 
        "province" : "Chanthaburi"
    },
    { 
        "_id" : "5756675cf9e03a5be680e08a", 
        "zip" : "22120", 
        "district" : "Tha Mai", 
        "province" : "Chanthaburi"
    },
    { 
        "_id" : "5756675cf9e03a5be680e08b", 
        "zip" : "22130", 
        "district" : "Laem Sing", 
        "province" : "Chanthaburi"
    },
    { 
        "_id" : "5756675cf9e03a5be680e08c", 
        "zip" : "22140", 
        "district" : "Pong Nam Ron", 
        "province" : "Chanthaburi"
    },
    { 
        "_id" : "5756675cf9e03a5be680e08d", 
        "zip" : "22150", 
        "district" : "Makham", 
        "province" : "Chanthaburi"
    },
    { 
        "_id" : "5756675cf9e03a5be680e08e", 
        "zip" : "22160", 
        "district" : "Kaeng Hang Maeo", 
        "province" : "Chanthaburi"
    },
    { 
        "_id" : "5756675cf9e03a5be680e08f", 
        "zip" : "22160", 
        "district" : "Na Yai Am", 
        "province" : "Chanthaburi"
    },
    { 
        "_id" : "5756675cf9e03a5be680e090", 
        "zip" : "22180", 
        "district" : "Soi Dao", 
        "province" : "Chanthaburi"
    },
    { 
        "_id" : "5756675cf9e03a5be680e091", 
        "zip" : "22210", 
        "district" : "Khao Kitchakut", 
        "province" : "Chanthaburi"
    },
    { 
        "_id" : "5756675cf9e03a5be680e092", 
        "zip" : "23000", 
        "district" : "Mueang Trat", 
        "province" : "Trat"
    },
    { 
        "_id" : "5756675cf9e03a5be680e093", 
        "zip" : "23000", 
        "district" : "Ko Kut", 
        "province" : "Trat"
    },
    { 
        "_id" : "5756675cf9e03a5be680e094", 
        "zip" : "23110", 
        "district" : "Khlong Yai", 
        "province" : "Trat"
    },
    { 
        "_id" : "5756675cf9e03a5be680e095", 
        "zip" : "23120", 
        "district" : "Laem Ngop", 
        "province" : "Trat"
    },
    { 
        "_id" : "5756675cf9e03a5be680e096", 
        "zip" : "23120", 
        "district" : "Ko Chang", 
        "province" : "Trat"
    },
    { 
        "_id" : "5756675cf9e03a5be680e097", 
        "zip" : "23130", 
        "district" : "Khao Saming", 
        "province" : "Trat"
    },
    { 
        "_id" : "5756675cf9e03a5be680e098", 
        "zip" : "23140", 
        "district" : "Bo Rai", 
        "province" : "Trat"
    },
    { 
        "_id" : "5756675cf9e03a5be680e099", 
        "zip" : "24000", 
        "district" : "Mueang Chachoengsao", 
        "province" : "Chachoengsao"
    },
    { 
        "_id" : "5756675cf9e03a5be680e09a", 
        "zip" : "24000", 
        "district" : "Khlong Khuean", 
        "province" : "Chachoengsao"
    },
    { 
        "_id" : "5756675cf9e03a5be680e09b", 
        "zip" : "24110", 
        "district" : "Bang Khla", 
        "province" : "Chachoengsao"
    },
    { 
        "_id" : "5756675cf9e03a5be680e09c", 
        "zip" : "24120", 
        "district" : "Rachsan", 
        "province" : "Chachoengsao"
    },
    { 
        "_id" : "5756675cf9e03a5be680e09d", 
        "zip" : "24120", 
        "district" : "Phanom Sarakham", 
        "province" : "Chachoengsao"
    },
    { 
        "_id" : "5756675cf9e03a5be680e09e", 
        "zip" : "24130", 
        "district" : "Bang Pakong", 
        "province" : "Chachoengsao"
    },
    { 
        "_id" : "5756675cf9e03a5be680e09f", 
        "zip" : "24140", 
        "district" : "Ban Pho", 
        "province" : "Chachoengsao"
    },
    { 
        "_id" : "5756675cf9e03a5be680e0a0", 
        "zip" : "24150", 
        "district" : "Bang Nam Priao", 
        "province" : "Chachoengsao"
    },
    { 
        "_id" : "5756675cf9e03a5be680e0a1", 
        "zip" : "24160", 
        "district" : "Ta Takiab", 
        "province" : "Chachoengsao"
    },
    { 
        "_id" : "5756675cf9e03a5be680e0a2", 
        "zip" : "24160", 
        "district" : "Sanam Chai Khet", 
        "province" : "Chachoengsao"
    },
    { 
        "_id" : "5756675cf9e03a5be680e0a3", 
        "zip" : "24190", 
        "district" : "Paeng Yao", 
        "province" : "Chachoengsao"
    },
    { 
        "_id" : "5756675cf9e03a5be680e0a4", 
        "zip" : "26000", 
        "district" : "Mueang Nakhon Nayok", 
        "province" : "Nakhon Nayok"
    },
    { 
        "_id" : "5756675cf9e03a5be680e0a5", 
        "zip" : "26110", 
        "district" : "Ban Na", 
        "province" : "Nakhon Nayok"
    },
    { 
        "_id" : "5756675cf9e03a5be680e0a6", 
        "zip" : "26120", 
        "district" : "Ongkharak", 
        "province" : "Nakhon Nayok"
    },
    { 
        "_id" : "5756675cf9e03a5be680e0a7", 
        "zip" : "26130", 
        "district" : "Pak Phli", 
        "province" : "Nakhon Nayok"
    },
    { 
        "_id" : "5756675cf9e03a5be680e0a8", 
        "zip" : "27000", 
        "district" : "Khao Chakan", 
        "province" : "Sa Kaeo"
    },
    { 
        "_id" : "5756675cf9e03a5be680e0a9", 
        "zip" : "27000", 
        "district" : "Mueang Sa Kaeo", 
        "province" : "Sa Kaeo"
    },
    { 
        "_id" : "5756675cf9e03a5be680e0aa", 
        "zip" : "27120", 
        "district" : "Wang Nam Yen", 
        "province" : "Sa Kaeo"
    },
    { 
        "_id" : "5756675cf9e03a5be680e0ab", 
        "zip" : "27120", 
        "district" : "Khok Sung", 
        "province" : "Sa Kaeo"
    },
    { 
        "_id" : "5756675cf9e03a5be680e0ac", 
        "zip" : "27120", 
        "district" : "Aranyaprathet", 
        "province" : "Sa Kaeo"
    },
    { 
        "_id" : "5756675cf9e03a5be680e0ad", 
        "zip" : "27160", 
        "district" : "Wattana Nakhon", 
        "province" : "Sa Kaeo"
    },
    { 
        "_id" : "5756675cf9e03a5be680e0ae", 
        "zip" : "27180", 
        "district" : "Ta Phraya", 
        "province" : "Sa Kaeo"
    },
    { 
        "_id" : "5756675cf9e03a5be680e0af", 
        "zip" : "27250", 
        "district" : "Wang Sombun", 
        "province" : "Sa Kaeo"
    },
    { 
        "_id" : "5756675cf9e03a5be680e0b0", 
        "zip" : "27260", 
        "district" : "Khlong Hat", 
        "province" : "Sa Kaeo"
    },
    { 
        "_id" : "5756675cf9e03a5be680e0b1", 
        "zip" : "30000", 
        "district" : "Mueang Nakhon Ratchasima", 
        "province" : "Nakhon Ratchasima"
    },
    { 
        "_id" : "5756675cf9e03a5be680e0b2", 
        "zip" : "30110", 
        "district" : "Phimai", 
        "province" : "Nakhon Ratchasima"
    },
    { 
        "_id" : "5756675cf9e03a5be680e0b3", 
        "zip" : "30120", 
        "district" : "Bua Yai", 
        "province" : "Nakhon Ratchasima"
    },
    { 
        "_id" : "5756675cf9e03a5be680e0b4", 
        "zip" : "30120", 
        "district" : "Bua Lai", 
        "province" : "Nakhon Ratchasima"
    },
    { 
        "_id" : "5756675cf9e03a5be680e0b5", 
        "zip" : "30130", 
        "district" : "Pak Chong", 
        "province" : "Nakhon Ratchasima"
    },
    { 
        "_id" : "5756675cf9e03a5be680e0b6", 
        "zip" : "30140", 
        "district" : "Sikhio", 
        "province" : "Nakhon Ratchasima"
    },
    { 
        "_id" : "5756675cf9e03a5be680e0b7", 
        "zip" : "30150", 
        "district" : "Pak Thong Chai", 
        "province" : "Nakhon Ratchasima"
    },
    { 
        "_id" : "5756675cf9e03a5be680e0b8", 
        "zip" : "30160", 
        "district" : "Non Sung", 
        "province" : "Nakhon Ratchasima"
    },
    { 
        "_id" : "5756675cf9e03a5be680e0b9", 
        "zip" : "30170", 
        "district" : "Sung Noen", 
        "province" : "Nakhon Ratchasima"
    },
    { 
        "_id" : "5756675cf9e03a5be680e0ba", 
        "zip" : "30180", 
        "district" : "Prathai", 
        "province" : "Nakhon Ratchasima"
    },
    { 
        "_id" : "5756675cf9e03a5be680e0bb", 
        "zip" : "30190", 
        "district" : "Chok Chai", 
        "province" : "Nakhon Ratchasima"
    },
    { 
        "_id" : "5756675cf9e03a5be680e0bc", 
        "zip" : "30210", 
        "district" : "Dan Khun Thot", 
        "province" : "Nakhon Ratchasima"
    },
    { 
        "_id" : "5756675cf9e03a5be680e0bd", 
        "zip" : "30210", 
        "district" : "Thepharak", 
        "province" : "Nakhon Ratchasima"
    },
    { 
        "_id" : "5756675cf9e03a5be680e0be", 
        "zip" : "30220", 
        "district" : "Phra Thong Kham", 
        "province" : "Nakhon Ratchasima"
    },
    { 
        "_id" : "5756675cf9e03a5be680e0bf", 
        "zip" : "30220", 
        "district" : "Non Thai", 
        "province" : "Nakhon Ratchasima"
    },
    { 
        "_id" : "5756675cf9e03a5be680e0c0", 
        "zip" : "30230", 
        "district" : "Cheleam Phakiat", 
        "province" : "Nakhon Ratchasima"
    },
    { 
        "_id" : "5756675cf9e03a5be680e0c1", 
        "zip" : "30230", 
        "district" : "Chakkarat", 
        "province" : "Nakhon Ratchasima"
    },
    { 
        "_id" : "5756675cf9e03a5be680e0c2", 
        "zip" : "30240", 
        "district" : "Huai Thalaeng", 
        "province" : "Nakhon Ratchasima"
    },
    { 
        "_id" : "5756675cf9e03a5be680e0c3", 
        "zip" : "30250", 
        "district" : "Khon Buri", 
        "province" : "Nakhon Ratchasima"
    },
    { 
        "_id" : "5756675cf9e03a5be680e0c4", 
        "zip" : "30260", 
        "district" : "Khong", 
        "province" : "Nakhon Ratchasima"
    },
    { 
        "_id" : "5756675cf9e03a5be680e0c5", 
        "zip" : "30270", 
        "district" : "Chum Phuang", 
        "province" : "Nakhon Ratchasima"
    },
    { 
        "_id" : "5756675cf9e03a5be680e0c6", 
        "zip" : "30270", 
        "district" : "Mueang Yang", 
        "province" : "Nakhon Ratchasima"
    },
    { 
        "_id" : "5756675cf9e03a5be680e0c7", 
        "zip" : "30270", 
        "district" : "Lum Thamenchai", 
        "province" : "Nakhon Ratchasima"
    },
    { 
        "_id" : "5756675cf9e03a5be680e0c8", 
        "zip" : "30280", 
        "district" : "Kham Thale So", 
        "province" : "Nakhon Ratchasima"
    },
    { 
        "_id" : "5756675cf9e03a5be680e0c9", 
        "zip" : "30290", 
        "district" : "Kham Sakae Saeng", 
        "province" : "Nakhon Ratchasima"
    },
    { 
        "_id" : "5756675cf9e03a5be680e0ca", 
        "zip" : "30330", 
        "district" : "Soeng Sang", 
        "province" : "Nakhon Ratchasima"
    },
    { 
        "_id" : "5756675cf9e03a5be680e0cb", 
        "zip" : "30350", 
        "district" : "Ban Lueam", 
        "province" : "Nakhon Ratchasima"
    },
    { 
        "_id" : "5756675cf9e03a5be680e0cc", 
        "zip" : "30360", 
        "district" : "Non Daeng", 
        "province" : "Nakhon Ratchasima"
    },
    { 
        "_id" : "5756675cf9e03a5be680e0cd", 
        "zip" : "30370", 
        "district" : "Wang Nam Khiao", 
        "province" : "Nakhon Ratchasima"
    },
    { 
        "_id" : "5756675cf9e03a5be680e0ce", 
        "zip" : "30410", 
        "district" : "Nong Bun Mak", 
        "province" : "Nakhon Ratchasima"
    },
    { 
        "_id" : "5756675cf9e03a5be680e0cf", 
        "zip" : "30430", 
        "district" : "Sida", 
        "province" : "Nakhon Ratchasima"
    },
    { 
        "_id" : "5756675cf9e03a5be680e0d0", 
        "zip" : "30440", 
        "district" : "Kaeng Sanam Nang", 
        "province" : "Nakhon Ratchasima"
    },
    { 
        "_id" : "5756675cf9e03a5be680e0d1", 
        "zip" : "34000", 
        "district" : "Mueang Ubon Ratchathani", 
        "province" : "Ubon Ratchathani"
    },
    { 
        "_id" : "5756675cf9e03a5be680e0d2", 
        "zip" : "34000", 
        "district" : "Don Mot Daeng", 
        "province" : "Ubon Ratchathani"
    },
    { 
        "_id" : "5756675cf9e03a5be680e0d3", 
        "zip" : "34140", 
        "district" : "Mueang Samsib", 
        "province" : "Ubon Ratchathani"
    },
    { 
        "_id" : "5756675cf9e03a5be680e0d4", 
        "zip" : "34150", 
        "district" : "Khuang Nai", 
        "province" : "Ubon Ratchathani"
    },
    { 
        "_id" : "5756675cf9e03a5be680e0d5", 
        "zip" : "34160", 
        "district" : "Det Udom", 
        "province" : "Ubon Ratchathani"
    },
    { 
        "_id" : "5756675cf9e03a5be680e0d6", 
        "zip" : "34170", 
        "district" : "Khemarat", 
        "province" : "Ubon Ratchathani"
    },
    { 
        "_id" : "5756675cf9e03a5be680e0d7", 
        "zip" : "34220", 
        "district" : "Khong Chiam", 
        "province" : "Ubon Ratchathani"
    },
    { 
        "_id" : "5756675cf9e03a5be680e0d8", 
        "zip" : "34230", 
        "district" : "Buntharik", 
        "province" : "Ubon Ratchathani"
    },
    { 
        "_id" : "5756675cf9e03a5be680e0d9", 
        "zip" : "34270", 
        "district" : "Kut Khaopun", 
        "province" : "Ubon Ratchathani"
    },
    { 
        "_id" : "5756675cf9e03a5be680e0da", 
        "zip" : "34280", 
        "district" : "Na Chaluai", 
        "province" : "Ubon Ratchathani"
    },
    { 
        "_id" : "5756675cf9e03a5be680e0db", 
        "zip" : "35000", 
        "district" : "Mueang Yasothon", 
        "province" : "Yasothon"
    },
    { 
        "_id" : "5756675cf9e03a5be680e0dc", 
        "zip" : "35110", 
        "district" : "Kham Khuean Kaeo", 
        "province" : "Yasothon"
    },
    { 
        "_id" : "5756675cf9e03a5be680e0dd", 
        "zip" : "35120", 
        "district" : "Thai Charoen", 
        "province" : "Yasothon"
    },
    { 
        "_id" : "5756675cf9e03a5be680e0de", 
        "zip" : "35120", 
        "district" : "Loeng Nok Tha", 
        "province" : "Yasothon"
    },
    { 
        "_id" : "5756675cf9e03a5be680e0df", 
        "zip" : "35130", 
        "district" : "Maha Chana Chai", 
        "province" : "Yasothon"
    },
    { 
        "_id" : "5756675cf9e03a5be680e0e0", 
        "zip" : "35140", 
        "district" : "Kud Chum", 
        "province" : "Yasothon"
    },
    { 
        "_id" : "5756675cf9e03a5be680e0e1", 
        "zip" : "35150", 
        "district" : "Pa Tio", 
        "province" : "Yasothon"
    },
    { 
        "_id" : "5756675cf9e03a5be680e0e2", 
        "zip" : "35160", 
        "district" : "Kho Wang", 
        "province" : "Yasothon"
    },
    { 
        "_id" : "5756675cf9e03a5be680e0e3", 
        "zip" : "35170", 
        "district" : "Sai Mun", 
        "province" : "Yasothon"
    },
    { 
        "_id" : "5756675cf9e03a5be680e0e4", 
        "zip" : "36000", 
        "district" : "Mueang Chaiyaphum", 
        "province" : "Chaiyaphum"
    },
    { 
        "_id" : "5756675cf9e03a5be680e0e5", 
        "zip" : "36110", 
        "district" : "Phu Khiao", 
        "province" : "Chaiyaphum"
    },
    { 
        "_id" : "5756675cf9e03a5be680e0e6", 
        "zip" : "36120", 
        "district" : "Kaset Sombun", 
        "province" : "Chaiyaphum"
    },
    { 
        "_id" : "5756675cf9e03a5be680e0e7", 
        "zip" : "36130", 
        "district" : "Chaturat", 
        "province" : "Chaiyaphum"
    },
    { 
        "_id" : "5756675cf9e03a5be680e0e8", 
        "zip" : "36130", 
        "district" : "Noen Sa Nga", 
        "province" : "Chaiyaphum"
    },
    { 
        "_id" : "5756675cf9e03a5be680e0e9", 
        "zip" : "36130", 
        "district" : "Sub Yai", 
        "province" : "Chaiyaphum"
    },
    { 
        "_id" : "5756675cf9e03a5be680e0ea", 
        "zip" : "36140", 
        "district" : "Khon Sawan", 
        "province" : "Chaiyaphum"
    },
    { 
        "_id" : "5756675cf9e03a5be680e0eb", 
        "zip" : "36150", 
        "district" : "Kaeng Khro", 
        "province" : "Chaiyaphum"
    },
    { 
        "_id" : "5756675cf9e03a5be680e0ec", 
        "zip" : "36160", 
        "district" : "Bamnet Narong", 
        "province" : "Chaiyaphum"
    },
    { 
        "_id" : "5756675cf9e03a5be680e0ed", 
        "zip" : "36170", 
        "district" : "Ban Khwao", 
        "province" : "Chaiyaphum"
    },
    { 
        "_id" : "5756675cf9e03a5be680e0ee", 
        "zip" : "36180", 
        "district" : "Khon San", 
        "province" : "Chaiyaphum"
    },
    { 
        "_id" : "5756675cf9e03a5be680e0ef", 
        "zip" : "36190", 
        "district" : "Ban Thaen", 
        "province" : "Chaiyaphum"
    },
    { 
        "_id" : "5756675cf9e03a5be680e0f0", 
        "zip" : "36210", 
        "district" : "Nong Bua Daeng", 
        "province" : "Chaiyaphum"
    },
    { 
        "_id" : "5756675cf9e03a5be680e0f1", 
        "zip" : "36230", 
        "district" : "Thep Sathit", 
        "province" : "Chaiyaphum"
    },
    { 
        "_id" : "5756675cf9e03a5be680e0f2", 
        "zip" : "36250", 
        "district" : "Nong Bua Rawe", 
        "province" : "Chaiyaphum"
    },
    { 
        "_id" : "5756675cf9e03a5be680e0f3", 
        "zip" : "36260", 
        "district" : "Phakdi Chumphon", 
        "province" : "Chaiyaphum"
    },
    { 
        "_id" : "5756675cf9e03a5be680e0f4", 
        "zip" : "37000", 
        "district" : "Lue Amnat", 
        "province" : "Amnat Charoen"
    },
    { 
        "_id" : "5756675cf9e03a5be680e0f5", 
        "zip" : "37000", 
        "district" : "Mueang Amnat Charoen", 
        "province" : "Amnat Charoen"
    },
    { 
        "_id" : "5756675cf9e03a5be680e0f6", 
        "zip" : "37110", 
        "district" : "Phathumratvongsa", 
        "province" : "Amnat Charoen"
    },
    { 
        "_id" : "5756675cf9e03a5be680e0f7", 
        "zip" : "37180", 
        "district" : "Phana", 
        "province" : "Amnat Charoen"
    },
    { 
        "_id" : "5756675cf9e03a5be680e0f8", 
        "zip" : "37210", 
        "district" : "Chanunman", 
        "province" : "Amnat Charoen"
    },
    { 
        "_id" : "5756675cf9e03a5be680e0f9", 
        "zip" : "37240", 
        "district" : "Hua Taphan", 
        "province" : "Amnat Charoen"
    },
    { 
        "_id" : "5756675cf9e03a5be680e0fa", 
        "zip" : "37290", 
        "district" : "Senangkhanikhom", 
        "province" : "Amnat Charoen"
    },
    { 
        "_id" : "5756675cf9e03a5be680e0fb", 
        "zip" : "40000", 
        "district" : "Mueang Khonkaen", 
        "province" : "Khon Kaen"
    },
    { 
        "_id" : "5756675cf9e03a5be680e0fc", 
        "zip" : "40110", 
        "district" : "Ban Phai", 
        "province" : "Khon Kaen"
    },
    { 
        "_id" : "5756675cf9e03a5be680e0fd", 
        "zip" : "40110", 
        "district" : "Ban Had", 
        "province" : "Khon Kaen"
    },
    { 
        "_id" : "5756675cf9e03a5be680e0fe", 
        "zip" : "40110", 
        "district" : "Non Sila", 
        "province" : "Khon Kaen"
    },
    { 
        "_id" : "5756675cf9e03a5be680e0ff", 
        "zip" : "40120", 
        "district" : "Phon", 
        "province" : "Khon Kaen"
    },
    { 
        "_id" : "5756675cf9e03a5be680e100", 
        "zip" : "40130", 
        "district" : "Chum Phae", 
        "province" : "Khon Kaen"
    },
    { 
        "_id" : "5756675cf9e03a5be680e101", 
        "zip" : "40140", 
        "district" : "Nam Phong", 
        "province" : "Khon Kaen"
    },
    { 
        "_id" : "5756675cf9e03a5be680e102", 
        "zip" : "40150", 
        "district" : "Nong Nakham", 
        "province" : "Khon Kaen"
    },
    { 
        "_id" : "5756675cf9e03a5be680e103", 
        "zip" : "40150", 
        "district" : "Phu Wiang", 
        "province" : "Khon Kaen"
    },
    { 
        "_id" : "5756675cf9e03a5be680e104", 
        "zip" : "40160", 
        "district" : "Khok Phochai", 
        "province" : "Khon Kaen"
    },
    { 
        "_id" : "5756675cf9e03a5be680e105", 
        "zip" : "40160", 
        "district" : "Mancha Khiri", 
        "province" : "Khon Kaen"
    },
    { 
        "_id" : "5756675cf9e03a5be680e106", 
        "zip" : "40170", 
        "district" : "Kranuan", 
        "province" : "Khon Kaen"
    },
    { 
        "_id" : "5756675cf9e03a5be680e107", 
        "zip" : "40170", 
        "district" : "Sum Sung", 
        "province" : "Khon Kaen"
    },
    { 
        "_id" : "5756675cf9e03a5be680e108", 
        "zip" : "40180", 
        "district" : "Chonnabot", 
        "province" : "Khon Kaen"
    },
    { 
        "_id" : "5756675cf9e03a5be680e109", 
        "zip" : "40190", 
        "district" : "Nong Song Hong", 
        "province" : "Khon Kaen"
    },
    { 
        "_id" : "5756675cf9e03a5be680e10a", 
        "zip" : "40210", 
        "district" : "Nong Ruea", 
        "province" : "Khon Kaen"
    },
    { 
        "_id" : "5756675cf9e03a5be680e10b", 
        "zip" : "40220", 
        "district" : "Si Chomphu", 
        "province" : "Khon Kaen"
    },
    { 
        "_id" : "5756675cf9e03a5be680e10c", 
        "zip" : "40230", 
        "district" : "Waeng Noi", 
        "province" : "Khon Kaen"
    },
    { 
        "_id" : "5756675cf9e03a5be680e10d", 
        "zip" : "40250", 
        "district" : "Ubolratana", 
        "province" : "Khon Kaen"
    },
    { 
        "_id" : "5756675cf9e03a5be680e10e", 
        "zip" : "40270", 
        "district" : "Ban Fang", 
        "province" : "Khon Kaen"
    },
    { 
        "_id" : "5756675cf9e03a5be680e10f", 
        "zip" : "40280", 
        "district" : "Khao Suan Kwang", 
        "province" : "Khon Kaen"
    },
    { 
        "_id" : "5756675cf9e03a5be680e110", 
        "zip" : "40320", 
        "district" : "Phra Yuen", 
        "province" : "Khon Kaen"
    },
    { 
        "_id" : "5756675cf9e03a5be680e111", 
        "zip" : "40330", 
        "district" : "Waeng Yai", 
        "province" : "Khon Kaen"
    },
    { 
        "_id" : "5756675cf9e03a5be680e112", 
        "zip" : "40340", 
        "district" : "Pueai Noi", 
        "province" : "Khon Kaen"
    },
    { 
        "_id" : "5756675cf9e03a5be680e113", 
        "zip" : "40350", 
        "district" : "Phu Pha Man", 
        "province" : "Khon Kaen"
    },
    { 
        "_id" : "5756675cf9e03a5be680e114", 
        "zip" : "41000", 
        "district" : "Mueang Udon Thani", 
        "province" : "Udon Thani"
    },
    { 
        "_id" : "5756675cf9e03a5be680e115", 
        "zip" : "41110", 
        "district" : "Kumphawapi", 
        "province" : "Udon Thani"
    },
    { 
        "_id" : "5756675cf9e03a5be680e116", 
        "zip" : "41110", 
        "district" : "Phrachuk Siliakram", 
        "province" : "Udon Thani"
    },
    { 
        "_id" : "5756675cf9e03a5be680e117", 
        "zip" : "41130", 
        "district" : "Nong Han", 
        "province" : "Udon Thani"
    },
    { 
        "_id" : "5756675cf9e03a5be680e118", 
        "zip" : "41130", 
        "district" : "Pibun Rak", 
        "province" : "Udon Thani"
    },
    { 
        "_id" : "5756675cf9e03a5be680e119", 
        "zip" : "41130", 
        "district" : "Ku Kaeo", 
        "province" : "Udon Thani"
    },
    { 
        "_id" : "5756675cf9e03a5be680e11a", 
        "zip" : "41150", 
        "district" : "Phen", 
        "province" : "Udon Thani"
    },
    { 
        "_id" : "5756675cf9e03a5be680e11b", 
        "zip" : "41190", 
        "district" : "Ban Phue", 
        "province" : "Udon Thani"
    },
    { 
        "_id" : "5756675cf9e03a5be680e11c", 
        "zip" : "41190", 
        "district" : "Ban Dung", 
        "province" : "Udon Thani"
    },
    { 
        "_id" : "5756675cf9e03a5be680e11d", 
        "zip" : "41210", 
        "district" : "Nam Som", 
        "province" : "Udon Thani"
    },
    { 
        "_id" : "5756675cf9e03a5be680e11e", 
        "zip" : "41220", 
        "district" : "Nong Wua So", 
        "province" : "Udon Thani"
    },
    { 
        "_id" : "5756675cf9e03a5be680e11f", 
        "zip" : "41230", 
        "district" : "Si That", 
        "province" : "Udon Thani"
    },
    { 
        "_id" : "5756675cf9e03a5be680e120", 
        "zip" : "41240", 
        "district" : "Non Sa-at", 
        "province" : "Udon Thani"
    },
    { 
        "_id" : "5756675cf9e03a5be680e121", 
        "zip" : "41250", 
        "district" : "Kut Chap", 
        "province" : "Udon Thani"
    },
    { 
        "_id" : "5756675cf9e03a5be680e122", 
        "zip" : "41260", 
        "district" : "Sang Khom", 
        "province" : "Udon Thani"
    },
    { 
        "_id" : "5756675cf9e03a5be680e123", 
        "zip" : "41290", 
        "district" : "Chaiwan", 
        "province" : "Udon Thani"
    },
    { 
        "_id" : "5756675cf9e03a5be680e124", 
        "zip" : "41310", 
        "district" : "Thung Fon", 
        "province" : "Udon Thani"
    },
    { 
        "_id" : "5756675cf9e03a5be680e125", 
        "zip" : "41340", 
        "district" : "Nong Saeng", 
        "province" : "Udon Thani"
    },
    { 
        "_id" : "5756675cf9e03a5be680e126", 
        "zip" : "41380", 
        "district" : "Wang Sam Mo", 
        "province" : "Udon Thani"
    },
    { 
        "_id" : "5756675cf9e03a5be680e127", 
        "zip" : "41380", 
        "district" : "Na Yung", 
        "province" : "Udon Thani"
    },
    { 
        "_id" : "5756675cf9e03a5be680e128", 
        "zip" : "41220", 
        "district" : "Erawan", 
        "province" : "Loei"
    },
    { 
        "_id" : "5756675cf9e03a5be680e129", 
        "zip" : "42000", 
        "district" : "Mueang Loei", 
        "province" : "Loei"
    },
    { 
        "_id" : "5756675cf9e03a5be680e12a", 
        "zip" : "42110", 
        "district" : "Chiang Khan", 
        "province" : "Loei"
    },
    { 
        "_id" : "5756675cf9e03a5be680e12b", 
        "zip" : "42120", 
        "district" : "Dan Sai", 
        "province" : "Loei"
    },
    { 
        "_id" : "5756675cf9e03a5be680e12c", 
        "zip" : "42130", 
        "district" : "Wang Saphung", 
        "province" : "Loei"
    },
    { 
        "_id" : "5756675cf9e03a5be680e12d", 
        "zip" : "42140", 
        "district" : "Tha Li", 
        "province" : "Loei"
    },
    { 
        "_id" : "5756675cf9e03a5be680e12e", 
        "zip" : "42150", 
        "district" : "Pak Chom", 
        "province" : "Loei"
    },
    { 
        "_id" : "5756675cf9e03a5be680e12f", 
        "zip" : "42160", 
        "district" : "Phu Ruea", 
        "province" : "Loei"
    },
    { 
        "_id" : "5756675cf9e03a5be680e130", 
        "zip" : "42170", 
        "district" : "Na Haeo", 
        "province" : "Loei"
    },
    { 
        "_id" : "5756675cf9e03a5be680e131", 
        "zip" : "42180", 
        "district" : "Phu Kradueng", 
        "province" : "Loei"
    },
    { 
        "_id" : "5756675cf9e03a5be680e132", 
        "zip" : "42210", 
        "district" : "Na Duang", 
        "province" : "Loei"
    },
    { 
        "_id" : "5756675cf9e03a5be680e133", 
        "zip" : "42230", 
        "district" : "Phu Luang", 
        "province" : "Loei"
    },
    { 
        "_id" : "5756675cf9e03a5be680e134", 
        "zip" : "42240", 
        "district" : "Pha Khao", 
        "province" : "Loei"
    },
    { 
        "_id" : "5756675cf9e03a5be680e135", 
        "zip" : "43000", 
        "district" : "Mueang Nong Khai", 
        "province" : "Nong Khai"
    },
    { 
        "_id" : "5756675cf9e03a5be680e136", 
        "zip" : "43100", 
        "district" : "Sra Khai", 
        "province" : "Nong Khai"
    },
    { 
        "_id" : "5756675cf9e03a5be680e137", 
        "zip" : "43110", 
        "district" : "Tha Bo", 
        "province" : "Nong Khai"
    },
    { 
        "_id" : "5756675cf9e03a5be680e138", 
        "zip" : "43120", 
        "district" : "Rattana Wapi", 
        "province" : "Nong Khai"
    },
    { 
        "_id" : "5756675cf9e03a5be680e139", 
        "zip" : "43120", 
        "district" : "Phon Phisai", 
        "province" : "Nong Khai"
    },
    { 
        "_id" : "5756675cf9e03a5be680e13a", 
        "zip" : "43120", 
        "district" : "Fao Rai", 
        "province" : "Nong Khai"
    },
    { 
        "_id" : "5756675cf9e03a5be680e13b", 
        "zip" : "43130", 
        "district" : "Po Tak", 
        "province" : "Nong Khai"
    },
    { 
        "_id" : "5756675cf9e03a5be680e13c", 
        "zip" : "43130", 
        "district" : "Si Chiang Mai", 
        "province" : "Nong Khai"
    },
    { 
        "_id" : "5756675cf9e03a5be680e13d", 
        "zip" : "43140", 
        "district" : "Bueng Kan", 
        "province" : "Nong Khai"
    },
    { 
        "_id" : "5756675cf9e03a5be680e13e", 
        "zip" : "43140", 
        "district" : "Bung Khla", 
        "province" : "Nong Khai"
    },
    { 
        "_id" : "5756675cf9e03a5be680e13f", 
        "zip" : "43150", 
        "district" : "Seka", 
        "province" : "Nong Khai"
    },
    { 
        "_id" : "5756675cf9e03a5be680e140", 
        "zip" : "43160", 
        "district" : "Sang Khom", 
        "province" : "Nong Khai"
    },
    { 
        "_id" : "5756675cf9e03a5be680e141", 
        "zip" : "43170", 
        "district" : "So Phisai", 
        "province" : "Nong Khai"
    },
    { 
        "_id" : "5756675cf9e03a5be680e142", 
        "zip" : "43180", 
        "district" : "Phon Charoen", 
        "province" : "Nong Khai"
    },
    { 
        "_id" : "5756675cf9e03a5be680e143", 
        "zip" : "43190", 
        "district" : "Pak Khat", 
        "province" : "Nong Khai"
    },
    { 
        "_id" : "5756675cf9e03a5be680e144", 
        "zip" : "43210", 
        "district" : "Si Wilai", 
        "province" : "Nong Khai"
    },
    { 
        "_id" : "5756675cf9e03a5be680e145", 
        "zip" : "43220", 
        "district" : "Bueng Khong Long", 
        "province" : "Nong Khai"
    },
    { 
        "_id" : "5756675cf9e03a5be680e146", 
        "zip" : "44000", 
        "district" : "Mueang Maha Sarakham", 
        "province" : "Maha Sarakham"
    },
    { 
        "_id" : "5756675cf9e03a5be680e147", 
        "zip" : "44110", 
        "district" : "Phayakkhaphum Phisai", 
        "province" : "Maha Sarakham"
    },
    { 
        "_id" : "5756675cf9e03a5be680e148", 
        "zip" : "44120", 
        "district" : "Wapi Pathum", 
        "province" : "Maha Sarakham"
    },
    { 
        "_id" : "5756675cf9e03a5be680e149", 
        "zip" : "44130", 
        "district" : "Kud Rang", 
        "province" : "Maha Sarakham"
    },
    { 
        "_id" : "5756675cf9e03a5be680e14a", 
        "zip" : "44130", 
        "district" : "Borabue", 
        "province" : "Maha Sarakham"
    },
    { 
        "_id" : "5756675cf9e03a5be680e14b", 
        "zip" : "44140", 
        "district" : "Kosum Phisai", 
        "province" : "Maha Sarakham"
    },
    { 
        "_id" : "5756675cf9e03a5be680e14c", 
        "zip" : "44150", 
        "district" : "Kantharawichai", 
        "province" : "Maha Sarakham"
    },
    { 
        "_id" : "5756675cf9e03a5be680e14d", 
        "zip" : "44160", 
        "district" : "Chuen Chom ", 
        "province" : "Maha Sarakham"
    },
    { 
        "_id" : "5756675cf9e03a5be680e14e", 
        "zip" : "44160", 
        "district" : "Chiang Yuen", 
        "province" : "Maha Sarakham"
    },
    { 
        "_id" : "5756675cf9e03a5be680e14f", 
        "zip" : "44170", 
        "district" : "Na Chueak", 
        "province" : "Maha Sarakham"
    },
    { 
        "_id" : "5756675cf9e03a5be680e150", 
        "zip" : "44180", 
        "district" : "Na Dun", 
        "province" : "Maha Sarakham"
    },
    { 
        "_id" : "5756675cf9e03a5be680e151", 
        "zip" : "44190", 
        "district" : "Kae Dam", 
        "province" : "Maha Sarakham"
    },
    { 
        "_id" : "5756675cf9e03a5be680e152", 
        "zip" : "44210", 
        "district" : "Yang Si Surat", 
        "province" : "Maha Sarakham"
    },
    { 
        "_id" : "5756675cf9e03a5be680e153", 
        "zip" : "45000", 
        "district" : "Sri Somdet", 
        "province" : "Roi Et"
    },
    { 
        "_id" : "5756675cf9e03a5be680e154", 
        "zip" : "45000", 
        "district" : "Mueang Roi Et", 
        "province" : "Roi Et"
    },
    { 
        "_id" : "5756675cf9e03a5be680e155", 
        "zip" : "45000", 
        "district" : "Chiang Khwan", 
        "province" : "Roi Et"
    },
    { 
        "_id" : "5756675cf9e03a5be680e156", 
        "zip" : "45000", 
        "district" : "Chang Han", 
        "province" : "Roi Et"
    },
    { 
        "_id" : "5756675cf9e03a5be680e157", 
        "zip" : "45110", 
        "district" : "Phon Thong", 
        "province" : "Roi Et"
    },
    { 
        "_id" : "5756675cf9e03a5be680e158", 
        "zip" : "45120", 
        "district" : "Salaphum", 
        "province" : "Roi Et"
    },
    { 
        "_id" : "5756675cf9e03a5be680e159", 
        "zip" : "45130", 
        "district" : "Suwannaphum", 
        "province" : "Roi Et"
    },
    { 
        "_id" : "5756675cf9e03a5be680e15a", 
        "zip" : "45140", 
        "district" : "Nong Hi", 
        "province" : "Roi Et"
    },
    { 
        "_id" : "5756675cf9e03a5be680e15b", 
        "zip" : "45140", 
        "district" : "Phaanom Phrai", 
        "province" : "Roi Et"
    },
    { 
        "_id" : "5756675cf9e03a5be680e15c", 
        "zip" : "45150", 
        "district" : "Kaset Wisai", 
        "province" : "Roi Et"
    },
    { 
        "_id" : "5756675cf9e03a5be680e15d", 
        "zip" : "45160", 
        "district" : "At Samat", 
        "province" : "Roi Et"
    },
    { 
        "_id" : "5756675cf9e03a5be680e15e", 
        "zip" : "45170", 
        "district" : "Tung Khaoluang", 
        "province" : "Roi Et"
    },
    { 
        "_id" : "5756675cf9e03a5be680e15f", 
        "zip" : "45170", 
        "district" : "Thawat Buri", 
        "province" : "Roi Et"
    },
    { 
        "_id" : "5756675cf9e03a5be680e160", 
        "zip" : "45180", 
        "district" : "Chaturaphak Phiman", 
        "province" : "Roi Et"
    },
    { 
        "_id" : "5756675cf9e03a5be680e161", 
        "zip" : "45190", 
        "district" : "Pathum Rat", 
        "province" : "Roi Et"
    },
    { 
        "_id" : "5756675cf9e03a5be680e162", 
        "zip" : "45210", 
        "district" : "Nong Phok", 
        "province" : "Roi Et"
    },
    { 
        "_id" : "5756675cf9e03a5be680e163", 
        "zip" : "45220", 
        "district" : "Mueang Suang", 
        "province" : "Roi Et"
    },
    { 
        "_id" : "5756675cf9e03a5be680e164", 
        "zip" : "45230", 
        "district" : "Pho Chai", 
        "province" : "Roi Et"
    },
    { 
        "_id" : "5756675cf9e03a5be680e165", 
        "zip" : "45240", 
        "district" : "Phon Sai", 
        "province" : "Roi Et"
    },
    { 
        "_id" : "5756675cf9e03a5be680e166", 
        "zip" : "45250", 
        "district" : "Moei Wadi", 
        "province" : "Roi Et"
    },
    { 
        "_id" : "5756675cf9e03a5be680e167", 
        "zip" : "46000", 
        "district" : "Donchan", 
        "province" : "Kalasin"
    },
    { 
        "_id" : "5756675cf9e03a5be680e168", 
        "zip" : "46000", 
        "district" : "Mueang Kalasin", 
        "province" : "Kalasin"
    },
    { 
        "_id" : "5756675cf9e03a5be680e169", 
        "zip" : "46110", 
        "district" : "Kuchinarai", 
        "province" : "Kalasin"
    },
    { 
        "_id" : "5756675cf9e03a5be680e16a", 
        "zip" : "46120", 
        "district" : "Yang Talat", 
        "province" : "Kalasin"
    },
    { 
        "_id" : "5756675cf9e03a5be680e16b", 
        "zip" : "46130", 
        "district" : "Kamalasai", 
        "province" : "Kalasin"
    },
    { 
        "_id" : "5756675cf9e03a5be680e16c", 
        "zip" : "46130", 
        "district" : "Kong Chai", 
        "province" : "Kalasin"
    },
    { 
        "_id" : "5756675cf9e03a5be680e16d", 
        "zip" : "46140", 
        "district" : "Sahatsakhan", 
        "province" : "Kalasin"
    },
    { 
        "_id" : "5756675cf9e03a5be680e16e", 
        "zip" : "46150", 
        "district" : "Somdet", 
        "province" : "Kalasin"
    },
    { 
        "_id" : "5756675cf9e03a5be680e16f", 
        "zip" : "46160", 
        "district" : "Khao Wong", 
        "province" : "Kalasin"
    },
    { 
        "_id" : "5756675cf9e03a5be680e170", 
        "zip" : "46160", 
        "district" : "Na Khu", 
        "province" : "Kalasin"
    },
    { 
        "_id" : "5756675cf9e03a5be680e171", 
        "zip" : "46170", 
        "district" : "Huai Mek", 
        "province" : "Kalasin"
    },
    { 
        "_id" : "5756675cf9e03a5be680e172", 
        "zip" : "46180", 
        "district" : "Kham Muang", 
        "province" : "Kalasin"
    },
    { 
        "_id" : "5756675cf9e03a5be680e173", 
        "zip" : "46190", 
        "district" : "Tha Khantho", 
        "province" : "Kalasin"
    },
    { 
        "_id" : "5756675cf9e03a5be680e174", 
        "zip" : "46210", 
        "district" : "Rong Kham", 
        "province" : "Kalasin"
    },
    { 
        "_id" : "5756675cf9e03a5be680e175", 
        "zip" : "46220", 
        "district" : "Nong Kung Si", 
        "province" : "Kalasin"
    },
    { 
        "_id" : "5756675cf9e03a5be680e176", 
        "zip" : "46230", 
        "district" : "Na Mon", 
        "province" : "Kalasin"
    },
    { 
        "_id" : "5756675cf9e03a5be680e177", 
        "zip" : "46240", 
        "district" : "Huai Phueng", 
        "province" : "Kalasin"
    },
    { 
        "_id" : "5756675cf9e03a5be680e178", 
        "zip" : "47000", 
        "district" : "Mueang Sakon Nakhon", 
        "province" : "Sakon Nakhon"
    },
    { 
        "_id" : "5756675cf9e03a5be680e179", 
        "zip" : "47110", 
        "district" : "Sawang Daen Din", 
        "province" : "Sakon Nakhon"
    },
    { 
        "_id" : "5756675cf9e03a5be680e17a", 
        "zip" : "47120", 
        "district" : "Wanon Niwat", 
        "province" : "Sakon Nakhon"
    },
    { 
        "_id" : "5756675cf9e03a5be680e17b", 
        "zip" : "47130", 
        "district" : "Phanna Nikhom", 
        "province" : "Sakon Nakhon"
    },
    { 
        "_id" : "5756675cf9e03a5be680e17c", 
        "zip" : "47140", 
        "district" : "Ban Muang", 
        "province" : "Sakon Nakhon"
    },
    { 
        "_id" : "5756675cf9e03a5be680e17d", 
        "zip" : "47150", 
        "district" : "Waritchaphum", 
        "province" : "Sakon Nakhon"
    },
    { 
        "_id" : "5756675cf9e03a5be680e17e", 
        "zip" : "47160", 
        "district" : "Phang Khon", 
        "province" : "Sakon Nakhon"
    },
    { 
        "_id" : "5756675cf9e03a5be680e17f", 
        "zip" : "47170", 
        "district" : "Akat Amnuai", 
        "province" : "Sakon Nakhon"
    },
    { 
        "_id" : "5756675cf9e03a5be680e180", 
        "zip" : "47180", 
        "district" : "Phu Phan", 
        "province" : "Sakon Nakhon"
    },
    { 
        "_id" : "5756675cf9e03a5be680e181", 
        "zip" : "47180", 
        "district" : "Kut Bak", 
        "province" : "Sakon Nakhon"
    },
    { 
        "_id" : "5756675cf9e03a5be680e182", 
        "zip" : "47190", 
        "district" : "Song Dao", 
        "province" : "Sakon Nakhon"
    },
    { 
        "_id" : "5756675cf9e03a5be680e183", 
        "zip" : "47210", 
        "district" : "Kusuman", 
        "province" : "Sakon Nakhon"
    },
    { 
        "_id" : "5756675cf9e03a5be680e184", 
        "zip" : "47230", 
        "district" : "Pon Nakaew", 
        "province" : "Sakon Nakhon"
    },
    { 
        "_id" : "5756675cf9e03a5be680e185", 
        "zip" : "47250", 
        "district" : "Kham Ta Kla", 
        "province" : "Sakon Nakhon"
    },
    { 
        "_id" : "5756675cf9e03a5be680e186", 
        "zip" : "47260", 
        "district" : "Tao Ngoi", 
        "province" : "Sakon Nakhon"
    },
    { 
        "_id" : "5756675cf9e03a5be680e187", 
        "zip" : "47270", 
        "district" : "Nikhom Nam Un", 
        "province" : "Sakon Nakhon"
    },
    { 
        "_id" : "5756675cf9e03a5be680e188", 
        "zip" : "47280", 
        "district" : "Khok Si Suphan", 
        "province" : "Sakon Nakhon"
    },
    { 
        "_id" : "5756675cf9e03a5be680e189", 
        "zip" : "47290", 
        "district" : "Charoensin", 
        "province" : "Sakon Nakhon"
    },
    { 
        "_id" : "5756675cf9e03a5be680e18a", 
        "zip" : "48000", 
        "district" : "Mueang Nakhon Phanom", 
        "province" : "Nakhon Phanom"
    },
    { 
        "_id" : "5756675cf9e03a5be680e18b", 
        "zip" : "48110", 
        "district" : "That Phanom", 
        "province" : "Nakhon Phanom"
    },
    { 
        "_id" : "5756675cf9e03a5be680e18c", 
        "zip" : "48120", 
        "district" : "Tha Uthen", 
        "province" : "Nakhon Phanom"
    },
    { 
        "_id" : "5756675cf9e03a5be680e18d", 
        "zip" : "48120", 
        "district" : "Tha Songkhram", 
        "province" : "Nakhon Phanom"
    },
    { 
        "_id" : "5756675cf9e03a5be680e18e", 
        "zip" : "48130", 
        "district" : "Na Kae", 
        "province" : "Nakhon Phanom"
    },
    { 
        "_id" : "5756675cf9e03a5be680e18f", 
        "zip" : "48130", 
        "district" : "Wang Yang", 
        "province" : "Nakhon Phanom"
    },
    { 
        "_id" : "5756675cf9e03a5be680e190", 
        "zip" : "48140", 
        "district" : "Ban Phaeng", 
        "province" : "Nakhon Phanom"
    },
    { 
        "_id" : "5756675cf9e03a5be680e191", 
        "zip" : "48140", 
        "district" : "Na Thom", 
        "province" : "Nakhon Phanom"
    },
    { 
        "_id" : "5756675cf9e03a5be680e192", 
        "zip" : "48150", 
        "district" : "Si Songkhram", 
        "province" : "Nakhon Phanom"
    },
    { 
        "_id" : "5756675cf9e03a5be680e193", 
        "zip" : "48160", 
        "district" : "Pla Pak", 
        "province" : "Nakhon Phanom"
    },
    { 
        "_id" : "5756675cf9e03a5be680e194", 
        "zip" : "48170", 
        "district" : "Renu Nakhon", 
        "province" : "Nakhon Phanom"
    },
    { 
        "_id" : "5756675cf9e03a5be680e195", 
        "zip" : "48180", 
        "district" : "Na Wa", 
        "province" : "Nakhon Phanom"
    },
    { 
        "_id" : "5756675cf9e03a5be680e196", 
        "zip" : "48190", 
        "district" : "Phon Sawan", 
        "province" : "Nakhon Phanom"
    },
    { 
        "_id" : "5756675cf9e03a5be680e197", 
        "zip" : "49000", 
        "district" : "Mueang Mukdahan", 
        "province" : "Mukdahan"
    },
    { 
        "_id" : "5756675cf9e03a5be680e198", 
        "zip" : "49110", 
        "district" : "Khamcha-I", 
        "province" : "Mukdahan"
    },
    { 
        "_id" : "5756675cf9e03a5be680e199", 
        "zip" : "49120", 
        "district" : "Don Tan", 
        "province" : "Mukdahan"
    },
    { 
        "_id" : "5756675cf9e03a5be680e19a", 
        "zip" : "49130", 
        "district" : "Nikhom Kham Soi", 
        "province" : "Mukdahan"
    },
    { 
        "_id" : "5756675cf9e03a5be680e19b", 
        "zip" : "49140", 
        "district" : "Don Luang", 
        "province" : "Mukdahan"
    },
    { 
        "_id" : "5756675cf9e03a5be680e19c", 
        "zip" : "49150", 
        "district" : "Wan Yai", 
        "province" : "Mukdahan"
    },
    { 
        "_id" : "5756675cf9e03a5be680e19d", 
        "zip" : "49160", 
        "district" : "Nong Sung", 
        "province" : "Mukdahan"
    },
    { 
        "_id" : "5756675cf9e03a5be680e19e", 
        "zip" : "50000", 
        "district" : "Mueang Chiang Mai", 
        "province" : "Chiang Mai"
    },
    { 
        "_id" : "5756675cf9e03a5be680e19f", 
        "zip" : "50110", 
        "district" : "Fang", 
        "province" : "Chiang Mai"
    },
    { 
        "_id" : "5756675cf9e03a5be680e1a0", 
        "zip" : "50120", 
        "district" : "San Pa Tong", 
        "province" : "Chiang Mai"
    },
    { 
        "_id" : "5756675cf9e03a5be680e1a1", 
        "zip" : "50130", 
        "district" : "San Kamphaeng", 
        "province" : "Chiang Mai"
    },
    { 
        "_id" : "5756675cf9e03a5be680e1a2", 
        "zip" : "50130", 
        "district" : "Mae On", 
        "province" : "Chiang Mai"
    },
    { 
        "_id" : "5756675cf9e03a5be680e1a3", 
        "zip" : "50140", 
        "district" : "Saraphi", 
        "province" : "Chiang Mai"
    },
    { 
        "_id" : "5756675cf9e03a5be680e1a4", 
        "zip" : "50150", 
        "district" : "Mae Taeng", 
        "province" : "Chiang Mai"
    },
    { 
        "_id" : "5756675cf9e03a5be680e1a5", 
        "zip" : "50160", 
        "district" : "Doi Lo", 
        "province" : "Chiang Mai"
    },
    { 
        "_id" : "5756675cf9e03a5be680e1a6", 
        "zip" : "50160", 
        "district" : "Chom Thong", 
        "province" : "Chiang Mai"
    },
    { 
        "_id" : "5756675cf9e03a5be680e1a7", 
        "zip" : "50170", 
        "district" : "Chiang Dao", 
        "province" : "Chiang Mai"
    },
    { 
        "_id" : "5756675cf9e03a5be680e1a8", 
        "zip" : "50180", 
        "district" : "Mae Rim", 
        "province" : "Chiang Mai"
    },
    { 
        "_id" : "5756675cf9e03a5be680e1a9", 
        "zip" : "50190", 
        "district" : "Phrao", 
        "province" : "Chiang Mai"
    },
    { 
        "_id" : "5756675cf9e03a5be680e1aa", 
        "zip" : "50210", 
        "district" : "San Sai", 
        "province" : "Chiang Mai"
    },
    { 
        "_id" : "5756675cf9e03a5be680e1ab", 
        "zip" : "50220", 
        "district" : "Doi Saket", 
        "province" : "Chiang Mai"
    },
    { 
        "_id" : "5756675cf9e03a5be680e1ac", 
        "zip" : "50230", 
        "district" : "Hang Dong", 
        "province" : "Chiang Mai"
    },
    { 
        "_id" : "5756675cf9e03a5be680e1ad", 
        "zip" : "50240", 
        "district" : "Hot", 
        "province" : "Chiang Mai"
    },
    { 
        "_id" : "5756675cf9e03a5be680e1ae", 
        "zip" : "50250", 
        "district" : "Samoeng", 
        "province" : "Chiang Mai"
    },
    { 
        "_id" : "5756675cf9e03a5be680e1af", 
        "zip" : "50260", 
        "district" : "Doi Tao", 
        "province" : "Chiang Mai"
    },
    { 
        "_id" : "5756675cf9e03a5be680e1b0", 
        "zip" : "50270", 
        "district" : "Mae Chaem", 
        "province" : "Chiang Mai"
    },
    { 
        "_id" : "5756675cf9e03a5be680e1b1", 
        "zip" : "50280", 
        "district" : "Mae Ai", 
        "province" : "Chiang Mai"
    },
    { 
        "_id" : "5756675cf9e03a5be680e1b2", 
        "zip" : "50310", 
        "district" : "Omkoi", 
        "province" : "Chiang Mai"
    },
    { 
        "_id" : "5756675cf9e03a5be680e1b3", 
        "zip" : "50320", 
        "district" : "Chai Prakan", 
        "province" : "Chiang Mai"
    },
    { 
        "_id" : "5756675cf9e03a5be680e1b4", 
        "zip" : "50350", 
        "district" : "Wiang Haeng", 
        "province" : "Chiang Mai"
    },
    { 
        "_id" : "5756675cf9e03a5be680e1b5", 
        "zip" : "50360", 
        "district" : "Mae Wang", 
        "province" : "Chiang Mai"
    },
    { 
        "_id" : "5756675cf9e03a5be680e1b6", 
        "zip" : "51000", 
        "district" : "Mueang Lamphun", 
        "province" : "Lamphun"
    },
    { 
        "_id" : "5756675cf9e03a5be680e1b7", 
        "zip" : "51110", 
        "district" : "Li", 
        "province" : "Lamphun"
    },
    { 
        "_id" : "5756675cf9e03a5be680e1b8", 
        "zip" : "51120", 
        "district" : "Pa Sang", 
        "province" : "Lamphun"
    },
    { 
        "_id" : "5756675cf9e03a5be680e1b9", 
        "zip" : "51120", 
        "district" : "Wiang Nonglong", 
        "province" : "Lamphun"
    },
    { 
        "_id" : "5756675cf9e03a5be680e1ba", 
        "zip" : "51130", 
        "district" : "Ban Hong", 
        "province" : "Lamphun"
    },
    { 
        "_id" : "5756675cf9e03a5be680e1bb", 
        "zip" : "51140", 
        "district" : "Mae Tha", 
        "province" : "Lamphun"
    },
    { 
        "_id" : "5756675cf9e03a5be680e1bc", 
        "zip" : "51160", 
        "district" : "Thung Hua Chang", 
        "province" : "Lamphun"
    },
    { 
        "_id" : "5756675cf9e03a5be680e1bd", 
        "zip" : "51180", 
        "district" : "Ban Thi", 
        "province" : "Lamphun"
    },
    { 
        "_id" : "5756675cf9e03a5be680e1be", 
        "zip" : "52000", 
        "district" : "Mueang Lampang", 
        "province" : "Lampang"
    },
    { 
        "_id" : "5756675cf9e03a5be680e1bf", 
        "zip" : "52110", 
        "district" : "Ngao", 
        "province" : "Lampang"
    },
    { 
        "_id" : "5756675cf9e03a5be680e1c0", 
        "zip" : "52120", 
        "district" : "Chae Hom", 
        "province" : "Lampang"
    },
    { 
        "_id" : "5756675cf9e03a5be680e1c1", 
        "zip" : "52130", 
        "district" : "Ko Kha", 
        "province" : "Lampang"
    },
    { 
        "_id" : "5756675cf9e03a5be680e1c2", 
        "zip" : "52140", 
        "district" : "Wang Nuea", 
        "province" : "Lampang"
    },
    { 
        "_id" : "5756675cf9e03a5be680e1c3", 
        "zip" : "52150", 
        "district" : "Mae Tha", 
        "province" : "Lampang"
    },
    { 
        "_id" : "5756675cf9e03a5be680e1c4", 
        "zip" : "52160", 
        "district" : "Thoen", 
        "province" : "Lampang"
    },
    { 
        "_id" : "5756675cf9e03a5be680e1c5", 
        "zip" : "52170", 
        "district" : "Sop Prap", 
        "province" : "Lampang"
    },
    { 
        "_id" : "5756675cf9e03a5be680e1c6", 
        "zip" : "52180", 
        "district" : "Mae Phrik", 
        "province" : "Lampang"
    },
    { 
        "_id" : "5756675cf9e03a5be680e1c7", 
        "zip" : "52190", 
        "district" : "Hang Chat", 
        "province" : "Lampang"
    },
    { 
        "_id" : "5756675cf9e03a5be680e1c8", 
        "zip" : "52210", 
        "district" : "Soem Ngam", 
        "province" : "Lampang"
    },
    { 
        "_id" : "5756675cf9e03a5be680e1c9", 
        "zip" : "52220", 
        "district" : "Mae Mo", 
        "province" : "Lampang"
    },
    { 
        "_id" : "5756675cf9e03a5be680e1ca", 
        "zip" : "52240", 
        "district" : "Mueang Pan", 
        "province" : "Lampang"
    },
    { 
        "_id" : "5756675cf9e03a5be680e1cb", 
        "zip" : "53000", 
        "district" : "Mueang Uttaradit", 
        "province" : "Uttaradit"
    },
    { 
        "_id" : "5756675cf9e03a5be680e1cc", 
        "zip" : "53110", 
        "district" : "Nam Pat", 
        "province" : "Uttaradit"
    },
    { 
        "_id" : "5756675cf9e03a5be680e1cd", 
        "zip" : "53120", 
        "district" : "Phichai", 
        "province" : "Uttaradit"
    },
    { 
        "_id" : "5756675cf9e03a5be680e1ce", 
        "zip" : "53130", 
        "district" : "Laplae", 
        "province" : "Uttaradit"
    },
    { 
        "_id" : "5756675cf9e03a5be680e1cf", 
        "zip" : "53140", 
        "district" : "Tron", 
        "province" : "Uttaradit"
    },
    { 
        "_id" : "5756675cf9e03a5be680e1d0", 
        "zip" : "53150", 
        "district" : "Tha Pla", 
        "province" : "Uttaradit"
    },
    { 
        "_id" : "5756675cf9e03a5be680e1d1", 
        "zip" : "53160", 
        "district" : "Fak Tha", 
        "province" : "Uttaradit"
    },
    { 
        "_id" : "5756675cf9e03a5be680e1d2", 
        "zip" : "53180", 
        "district" : "Ban Khok", 
        "province" : "Uttaradit"
    },
    { 
        "_id" : "5756675cf9e03a5be680e1d3", 
        "zip" : "53230", 
        "district" : "Tong Saen Khan", 
        "province" : "Uttaradit"
    },
    { 
        "_id" : "5756675cf9e03a5be680e1d4", 
        "zip" : "54000", 
        "district" : "Mueang Phrae", 
        "province" : "Phrae"
    },
    { 
        "_id" : "5756675cf9e03a5be680e1d5", 
        "zip" : "54120", 
        "district" : "Song", 
        "province" : "Phrae"
    },
    { 
        "_id" : "5756675cf9e03a5be680e1d6", 
        "zip" : "54130", 
        "district" : "Sung Men", 
        "province" : "Phrae"
    },
    { 
        "_id" : "5756675cf9e03a5be680e1d7", 
        "zip" : "54140", 
        "district" : "Rong Kwang", 
        "province" : "Phrae"
    },
    { 
        "_id" : "5756675cf9e03a5be680e1d8", 
        "zip" : "54140", 
        "district" : "Den Chai", 
        "province" : "Phrae"
    },
    { 
        "_id" : "5756675cf9e03a5be680e1d9", 
        "zip" : "54150", 
        "district" : "Long", 
        "province" : "Phrae"
    },
    { 
        "_id" : "5756675cf9e03a5be680e1da", 
        "zip" : "54160", 
        "district" : "Wang Chin", 
        "province" : "Phrae"
    },
    { 
        "_id" : "5756675cf9e03a5be680e1db", 
        "zip" : "54170", 
        "district" : "Nong Muangkhai", 
        "province" : "Phrae"
    },
    { 
        "_id" : "5756675cf9e03a5be680e1dc", 
        "zip" : "55000", 
        "district" : "Santisuk", 
        "province" : "Nan"
    },
    { 
        "_id" : "5756675cf9e03a5be680e1dd", 
        "zip" : "55000", 
        "district" : "Mueang Nan", 
        "province" : "Nan"
    },
    { 
        "_id" : "5756675cf9e03a5be680e1de", 
        "zip" : "55000", 
        "district" : "Phu Phiang", 
        "province" : "Nan"
    },
    { 
        "_id" : "5756675cf9e03a5be680e1df", 
        "zip" : "55110", 
        "district" : "Wiang Sa", 
        "province" : "Nan"
    },
    { 
        "_id" : "5756675cf9e03a5be680e1e0", 
        "zip" : "55120", 
        "district" : "Pua", 
        "province" : "Nan"
    },
    { 
        "_id" : "5756675cf9e03a5be680e1e1", 
        "zip" : "55130", 
        "district" : "Chaloem Phrakiat", 
        "province" : "Nan"
    },
    { 
        "_id" : "5756675cf9e03a5be680e1e2", 
        "zip" : "55130", 
        "district" : "Thung Chang", 
        "province" : "Nan"
    },
    { 
        "_id" : "5756675cf9e03a5be680e1e3", 
        "zip" : "55140", 
        "district" : "Tha Wang Pha", 
        "province" : "Nan"
    },
    { 
        "_id" : "5756675cf9e03a5be680e1e4", 
        "zip" : "55150", 
        "district" : "Na Noi", 
        "province" : "Nan"
    },
    { 
        "_id" : "5756675cf9e03a5be680e1e5", 
        "zip" : "55160", 
        "district" : "Chiang Klang", 
        "province" : "Nan"
    },
    { 
        "_id" : "5756675cf9e03a5be680e1e6", 
        "zip" : "55160", 
        "district" : "Song Khwae", 
        "province" : "Nan"
    },
    { 
        "_id" : "5756675cf9e03a5be680e1e7", 
        "zip" : "55170", 
        "district" : "Mae Charim", 
        "province" : "Nan"
    },
    { 
        "_id" : "5756675cf9e03a5be680e1e8", 
        "zip" : "55180", 
        "district" : "Na Muen", 
        "province" : "Nan"
    },
    { 
        "_id" : "5756675cf9e03a5be680e1e9", 
        "zip" : "55190", 
        "district" : "Ban Luang", 
        "province" : "Nan"
    },
    { 
        "_id" : "5756675cf9e03a5be680e1ea", 
        "zip" : "55220", 
        "district" : "Bo Kluea", 
        "province" : "Nan"
    },
    { 
        "_id" : "5756675cf9e03a5be680e1eb", 
        "zip" : "56000", 
        "district" : "Pu Khamyaw", 
        "province" : "Phayao"
    },
    { 
        "_id" : "5756675cf9e03a5be680e1ec", 
        "zip" : "56000", 
        "district" : "Mueang Phayao", 
        "province" : "Phayao"
    },
    { 
        "_id" : "5756675cf9e03a5be680e1ed", 
        "zip" : "56110", 
        "district" : "Chiang Kham", 
        "province" : "Phayao"
    },
    { 
        "_id" : "5756675cf9e03a5be680e1ee", 
        "zip" : "56110", 
        "district" : "Pu Sang", 
        "province" : "Phayao"
    },
    { 
        "_id" : "5756675cf9e03a5be680e1ef", 
        "zip" : "56120", 
        "district" : "Dok Kham Tai", 
        "province" : "Phayao"
    },
    { 
        "_id" : "5756675cf9e03a5be680e1f0", 
        "zip" : "56130", 
        "district" : "Mae Chai", 
        "province" : "Phayao"
    },
    { 
        "_id" : "5756675cf9e03a5be680e1f1", 
        "zip" : "56140", 
        "district" : "Pong", 
        "province" : "Phayao"
    },
    { 
        "_id" : "5756675cf9e03a5be680e1f2", 
        "zip" : "56150", 
        "district" : "Chun", 
        "province" : "Phayao"
    },
    { 
        "_id" : "5756675cf9e03a5be680e1f3", 
        "zip" : "56160", 
        "district" : "Chiacg Muan", 
        "province" : "Phayao"
    },
    { 
        "_id" : "5756675cf9e03a5be680e1f4", 
        "zip" : "57000", 
        "district" : "Mueang Chiang Rai", 
        "province" : "Chiang Rai"
    },
    { 
        "_id" : "5756675cf9e03a5be680e1f5", 
        "zip" : "57110", 
        "district" : "Mae Chan", 
        "province" : "Chiang Rai"
    },
    { 
        "_id" : "5756675cf9e03a5be680e1f6", 
        "zip" : "57110", 
        "district" : "Doi Luang", 
        "province" : "Chiang Rai"
    },
    { 
        "_id" : "5756675cf9e03a5be680e1f7", 
        "zip" : "57110", 
        "district" : "Mae Pha Luang", 
        "province" : "Chiang Rai"
    },
    { 
        "_id" : "5756675cf9e03a5be680e1f8", 
        "zip" : "57120", 
        "district" : "Phan", 
        "province" : "Chiang Rai"
    },
    { 
        "_id" : "5756675cf9e03a5be680e1f9", 
        "zip" : "57130", 
        "district" : "Mae Sai", 
        "province" : "Chiang Rai"
    },
    { 
        "_id" : "5756675cf9e03a5be680e1fa", 
        "zip" : "57140", 
        "district" : "Chiang Khong", 
        "province" : "Chiang Rai"
    },
    { 
        "_id" : "5756675cf9e03a5be680e1fb", 
        "zip" : "57150", 
        "district" : "Chiang Saen", 
        "province" : "Chiang Rai"
    },
    { 
        "_id" : "5756675cf9e03a5be680e1fc", 
        "zip" : "57160", 
        "district" : "Thoeng", 
        "province" : "Chiang Rai"
    },
    { 
        "_id" : "5756675cf9e03a5be680e1fd", 
        "zip" : "57170", 
        "district" : "Wiang Pa Pao", 
        "province" : "Chiang Rai"
    },
    { 
        "_id" : "5756675cf9e03a5be680e1fe", 
        "zip" : "57180", 
        "district" : "Mae Suai", 
        "province" : "Chiang Rai"
    },
    { 
        "_id" : "5756675cf9e03a5be680e1ff", 
        "zip" : "57190", 
        "district" : "Pa Daet", 
        "province" : "Chiang Rai"
    },
    { 
        "_id" : "5756675cf9e03a5be680e200", 
        "zip" : "57210", 
        "district" : "Wiang Chiang Rung", 
        "province" : "Chiang Rai"
    },
    { 
        "_id" : "5756675cf9e03a5be680e201", 
        "zip" : "57210", 
        "district" : "Wiang Chai", 
        "province" : "Chiang Rai"
    },
    { 
        "_id" : "5756675cf9e03a5be680e202", 
        "zip" : "57250", 
        "district" : "Mae Lao", 
        "province" : "Chiang Rai"
    },
    { 
        "_id" : "5756675cf9e03a5be680e203", 
        "zip" : "57290", 
        "district" : "Phaya Mengrai", 
        "province" : "Chiang Rai"
    },
    { 
        "_id" : "5756675cf9e03a5be680e204", 
        "zip" : "57310", 
        "district" : "Wiang Kaen", 
        "province" : "Chiang Rai"
    },
    { 
        "_id" : "5756675cf9e03a5be680e205", 
        "zip" : "57340", 
        "district" : "Khun Tan", 
        "province" : "Chiang Rai"
    },
    { 
        "_id" : "5756675cf9e03a5be680e206", 
        "zip" : "58000", 
        "district" : "Mueang Mae Hong Son", 
        "province" : "Mae Hong Son"
    },
    { 
        "_id" : "5756675cf9e03a5be680e207", 
        "zip" : "58110", 
        "district" : "Sop Moei", 
        "province" : "Mae Hong Son"
    },
    { 
        "_id" : "5756675cf9e03a5be680e208", 
        "zip" : "58110", 
        "district" : "Mae Sariang", 
        "province" : "Mae Hong Son"
    },
    { 
        "_id" : "5756675cf9e03a5be680e209", 
        "zip" : "58120", 
        "district" : "Mae La Noi", 
        "province" : "Mae Hong Son"
    },
    { 
        "_id" : "5756675cf9e03a5be680e20a", 
        "zip" : "58130", 
        "district" : "Pai", 
        "province" : "Mae Hong Son"
    },
    { 
        "_id" : "5756675cf9e03a5be680e20b", 
        "zip" : "58140", 
        "district" : "Khun Yuam", 
        "province" : "Mae Hong Son"
    },
    { 
        "_id" : "5756675cf9e03a5be680e20c", 
        "zip" : "58150", 
        "district" : "Pang Mapha", 
        "province" : "Mae Hong Son"
    },
    { 
        "_id" : "5756675cf9e03a5be680e20d", 
        "zip" : "60000", 
        "district" : "Mueang Nakhon Sawan", 
        "province" : "Nakhon Sawan"
    },
    { 
        "_id" : "5756675cf9e03a5be680e20e", 
        "zip" : "60110", 
        "district" : "Nong Bua", 
        "province" : "Nakhon Sawan"
    },
    { 
        "_id" : "5756675cf9e03a5be680e20f", 
        "zip" : "60120", 
        "district" : "Chumsaeng", 
        "province" : "Nakhon Sawan"
    },
    { 
        "_id" : "5756675cf9e03a5be680e210", 
        "zip" : "60130", 
        "district" : "Phayuha Khiri", 
        "province" : "Nakhon Sawan"
    },
    { 
        "_id" : "5756675cf9e03a5be680e211", 
        "zip" : "60140", 
        "district" : "Takhli", 
        "province" : "Nakhon Sawan"
    },
    { 
        "_id" : "5756675cf9e03a5be680e212", 
        "zip" : "60150", 
        "district" : "Mae Poen", 
        "province" : "Nakhon Sawan"
    },
    { 
        "_id" : "5756675cf9e03a5be680e213", 
        "zip" : "60150", 
        "district" : "Chum Tabong", 
        "province" : "Nakhon Sawan"
    },
    { 
        "_id" : "5756675cf9e03a5be680e214", 
        "zip" : "60150", 
        "district" : "Mae Wong", 
        "province" : "Nakhon Sawan"
    },
    { 
        "_id" : "5756675cf9e03a5be680e215", 
        "zip" : "60150", 
        "district" : "Lat Yao", 
        "province" : "Nakhon Sawan"
    },
    { 
        "_id" : "5756675cf9e03a5be680e216", 
        "zip" : "60160", 
        "district" : "Tha Tako", 
        "province" : "Nakhon Sawan"
    },
    { 
        "_id" : "5756675cf9e03a5be680e217", 
        "zip" : "60170", 
        "district" : "Krok Phra", 
        "province" : "Nakhon Sawan"
    },
    { 
        "_id" : "5756675cf9e03a5be680e218", 
        "zip" : "60180", 
        "district" : "Banphot Phisai", 
        "province" : "Nakhon Sawan"
    },
    { 
        "_id" : "5756675cf9e03a5be680e219", 
        "zip" : "60190", 
        "district" : "Tak Fa", 
        "province" : "Nakhon Sawan"
    },
    { 
        "_id" : "5756675cf9e03a5be680e21a", 
        "zip" : "60220", 
        "district" : "Phaisali", 
        "province" : "Nakhon Sawan"
    },
    { 
        "_id" : "5756675cf9e03a5be680e21b", 
        "zip" : "60230", 
        "district" : "Kao Liao", 
        "province" : "Nakhon Sawan"
    },
    { 
        "_id" : "5756675cf9e03a5be680e21c", 
        "zip" : "61000", 
        "district" : "Mueang Uthai Thani", 
        "province" : "Uthai Thani"
    },
    { 
        "_id" : "5756675cf9e03a5be680e21d", 
        "zip" : "61110", 
        "district" : "Nong Chang", 
        "province" : "Uthai Thani"
    },
    { 
        "_id" : "5756675cf9e03a5be680e21e", 
        "zip" : "61120", 
        "district" : "Thap Than", 
        "province" : "Uthai Thani"
    },
    { 
        "_id" : "5756675cf9e03a5be680e21f", 
        "zip" : "61130", 
        "district" : "Nong Khayang", 
        "province" : "Uthai Thani"
    },
    { 
        "_id" : "5756675cf9e03a5be680e220", 
        "zip" : "61140", 
        "district" : "Ban Rai", 
        "province" : "Uthai Thani"
    },
    { 
        "_id" : "5756675cf9e03a5be680e221", 
        "zip" : "61150", 
        "district" : "Sawang Arom", 
        "province" : "Uthai Thani"
    },
    { 
        "_id" : "5756675cf9e03a5be680e222", 
        "zip" : "61160", 
        "district" : "Lan Sak", 
        "province" : "Uthai Thani"
    },
    { 
        "_id" : "5756675cf9e03a5be680e223", 
        "zip" : "61170", 
        "district" : "Huai Khot", 
        "province" : "Uthai Thani"
    },
    { 
        "_id" : "5756675cf9e03a5be680e224", 
        "zip" : "62000", 
        "district" : "Mueang Kamphaeng Phet", 
        "province" : "Kamphaeng Phet"
    },
    { 
        "_id" : "5756675cf9e03a5be680e225", 
        "zip" : "62110", 
        "district" : "Phran Kratai", 
        "province" : "Kamphaeng Phet"
    },
    { 
        "_id" : "5756675cf9e03a5be680e226", 
        "zip" : "62120", 
        "district" : "Pang Sila Thong", 
        "province" : "Kamphaeng Phet"
    },
    { 
        "_id" : "5756675cf9e03a5be680e227", 
        "zip" : "62120", 
        "district" : "Khlong Khlung", 
        "province" : "Kamphaeng Phet"
    },
    { 
        "_id" : "5756675cf9e03a5be680e228", 
        "zip" : "62130", 
        "district" : "Khanu Woralaksaburi", 
        "province" : "Kamphaeng Phet"
    },
    { 
        "_id" : "5756675cf9e03a5be680e229", 
        "zip" : "62150", 
        "district" : "Sai Ngam", 
        "province" : "Kamphaeng Phet"
    },
    { 
        "_id" : "5756675cf9e03a5be680e22a", 
        "zip" : "62170", 
        "district" : "Lan Krabue", 
        "province" : "Kamphaeng Phet"
    },
    { 
        "_id" : "5756675cf9e03a5be680e22b", 
        "zip" : "62170", 
        "district" : "Khosamphi Nakhon", 
        "province" : "Kamphaeng Phet"
    },
    { 
        "_id" : "5756675cf9e03a5be680e22c", 
        "zip" : "62180", 
        "district" : "Khlong Lan", 
        "province" : "Kamphaeng Phet"
    },
    { 
        "_id" : "5756675cf9e03a5be680e22d", 
        "zip" : "62190", 
        "district" : "Sai Thong Watthana", 
        "province" : "Kamphaeng Phet"
    },
    { 
        "_id" : "5756675cf9e03a5be680e22e", 
        "zip" : "62210", 
        "district" : "Bueng Samakkhi", 
        "province" : "Kamphaeng Phet"
    },
    { 
        "_id" : "5756675cf9e03a5be680e22f", 
        "zip" : "63000", 
        "district" : "Wang Chao", 
        "province" : "Tak"
    },
    { 
        "_id" : "5756675cf9e03a5be680e230", 
        "zip" : "63000", 
        "district" : "Mueang Tak", 
        "province" : "Tak"
    },
    { 
        "_id" : "5756675cf9e03a5be680e231", 
        "zip" : "63110", 
        "district" : "Mae Sot", 
        "province" : "Tak"
    },
    { 
        "_id" : "5756675cf9e03a5be680e232", 
        "zip" : "63120", 
        "district" : "Ban Tak", 
        "province" : "Tak"
    },
    { 
        "_id" : "5756675cf9e03a5be680e233", 
        "zip" : "63130", 
        "district" : "Sam Ngao", 
        "province" : "Tak"
    },
    { 
        "_id" : "5756675cf9e03a5be680e234", 
        "zip" : "63140", 
        "district" : "Mae Ramat", 
        "province" : "Tak"
    },
    { 
        "_id" : "5756675cf9e03a5be680e235", 
        "zip" : "63150", 
        "district" : "Tha Song Yang", 
        "province" : "Tak"
    },
    { 
        "_id" : "5756675cf9e03a5be680e236", 
        "zip" : "63160", 
        "district" : "Phop Phra", 
        "province" : "Tak"
    },
    { 
        "_id" : "5756675cf9e03a5be680e237", 
        "zip" : "63170", 
        "district" : "Umphang", 
        "province" : "Tak"
    },
    { 
        "_id" : "5756675cf9e03a5be680e238", 
        "zip" : "64000", 
        "district" : "Mueang Sukhothai", 
        "province" : "Sukhothai"
    },
    { 
        "_id" : "5756675cf9e03a5be680e239", 
        "zip" : "64110", 
        "district" : "Sawankhalok", 
        "province" : "Sukhothai"
    },
    { 
        "_id" : "5756675cf9e03a5be680e23a", 
        "zip" : "64120", 
        "district" : "Si Samrong", 
        "province" : "Sukhothai"
    },
    { 
        "_id" : "5756675cf9e03a5be680e23b", 
        "zip" : "64130", 
        "district" : "Si Satchanalai", 
        "province" : "Sukhothai"
    },
    { 
        "_id" : "5756675cf9e03a5be680e23c", 
        "zip" : "64140", 
        "district" : "Ban Dan Lan Hoi", 
        "province" : "Sukhothai"
    },
    { 
        "_id" : "5756675cf9e03a5be680e23d", 
        "zip" : "64150", 
        "district" : "Thung Saliam", 
        "province" : "Sukhothai"
    },
    { 
        "_id" : "5756675cf9e03a5be680e23e", 
        "zip" : "64160", 
        "district" : "Khiri Mat", 
        "province" : "Sukhothai"
    },
    { 
        "_id" : "5756675cf9e03a5be680e23f", 
        "zip" : "64170", 
        "district" : "Kong Krailat", 
        "province" : "Sukhothai"
    },
    { 
        "_id" : "5756675cf9e03a5be680e240", 
        "zip" : "64180", 
        "district" : "Si Nakhon", 
        "province" : "Sukhothai"
    },
    { 
        "_id" : "5756675cf9e03a5be680e241", 
        "zip" : "65000", 
        "district" : "Mueang Phitsanulok", 
        "province" : "Phitsanulok"
    },
    { 
        "_id" : "5756675cf9e03a5be680e242", 
        "zip" : "65110", 
        "district" : "Bang Krathum", 
        "province" : "Phitsanulok"
    },
    { 
        "_id" : "5756675cf9e03a5be680e243", 
        "zip" : "65120", 
        "district" : "Nakhon Thai", 
        "province" : "Phitsanulok"
    },
    { 
        "_id" : "5756675cf9e03a5be680e244", 
        "zip" : "65130", 
        "district" : "Wang Thong", 
        "province" : "Phitsanulok"
    },
    { 
        "_id" : "5756675cf9e03a5be680e245", 
        "zip" : "65140", 
        "district" : "Bang Rakam", 
        "province" : "Phitsanulok"
    },
    { 
        "_id" : "5756675cf9e03a5be680e246", 
        "zip" : "65150", 
        "district" : "Phrom Phiram", 
        "province" : "Phitsanulok"
    },
    { 
        "_id" : "5756675cf9e03a5be680e247", 
        "zip" : "65160", 
        "district" : "Wat Bot", 
        "province" : "Phitsanulok"
    },
    { 
        "_id" : "5756675cf9e03a5be680e248", 
        "zip" : "65170", 
        "district" : "Chat Trakan", 
        "province" : "Phitsanulok"
    },
    { 
        "_id" : "5756675cf9e03a5be680e249", 
        "zip" : "65190", 
        "district" : "Noen Maprang", 
        "province" : "Phitsanulok"
    },
    { 
        "_id" : "5756675cf9e03a5be680e24a", 
        "zip" : "66000", 
        "district" : "Mueang Phichit", 
        "province" : "Phichit"
    },
    { 
        "_id" : "5756675cf9e03a5be680e24b", 
        "zip" : "66110", 
        "district" : "Taphan Hin", 
        "province" : "Phichit"
    },
    { 
        "_id" : "5756675cf9e03a5be680e24c", 
        "zip" : "66120", 
        "district" : "Bang Mun Nak", 
        "province" : "Phichit"
    },
    { 
        "_id" : "5756675cf9e03a5be680e24d", 
        "zip" : "66130", 
        "district" : "Pho Thale", 
        "province" : "Phichit"
    },
    { 
        "_id" : "5756675cf9e03a5be680e24e", 
        "zip" : "66130", 
        "district" : "Bueng Na Rang", 
        "province" : "Phichit"
    },
    { 
        "_id" : "5756675cf9e03a5be680e24f", 
        "zip" : "66140", 
        "district" : "Wachirabarami", 
        "province" : "Phichit"
    },
    { 
        "_id" : "5756675cf9e03a5be680e250", 
        "zip" : "66140", 
        "district" : "Sam Ngam", 
        "province" : "Phichit"
    },
    { 
        "_id" : "5756675cf9e03a5be680e251", 
        "zip" : "66150", 
        "district" : "Tab Khlo", 
        "province" : "Phichit"
    },
    { 
        "_id" : "5756675cf9e03a5be680e252", 
        "zip" : "66160", 
        "district" : "Sak Lek", 
        "province" : "Phichit"
    },
    { 
        "_id" : "5756675cf9e03a5be680e253", 
        "zip" : "66180", 
        "district" : "Wang Sai Phun", 
        "province" : "Phichit"
    },
    { 
        "_id" : "5756675cf9e03a5be680e254", 
        "zip" : "66190", 
        "district" : "Pho Prathap Chang", 
        "province" : "Phichit"
    },
    { 
        "_id" : "5756675cf9e03a5be680e255", 
        "zip" : "66210", 
        "district" : "Dong Charoen", 
        "province" : "Phichit"
    },
    { 
        "_id" : "5756675cf9e03a5be680e256", 
        "zip" : "70000", 
        "district" : "Mueang Ratchaburi", 
        "province" : "Ratchaburi"
    },
    { 
        "_id" : "5756675cf9e03a5be680e257", 
        "zip" : "70110", 
        "district" : "Ban Pong", 
        "province" : "Ratchaburi"
    },
    { 
        "_id" : "5756675cf9e03a5be680e258", 
        "zip" : "70120", 
        "district" : "Photharam", 
        "province" : "Ratchaburi"
    },
    { 
        "_id" : "5756675cf9e03a5be680e259", 
        "zip" : "70130", 
        "district" : "Damnoen Saduak", 
        "province" : "Ratchaburi"
    },
    { 
        "_id" : "5756675cf9e03a5be680e25a", 
        "zip" : "70140", 
        "district" : "Pak Tho", 
        "province" : "Ratchaburi"
    },
    { 
        "_id" : "5756675cf9e03a5be680e25b", 
        "zip" : "70150", 
        "district" : "Chom Bueng", 
        "province" : "Ratchaburi"
    },
    { 
        "_id" : "5756675cf9e03a5be680e25c", 
        "zip" : "70160", 
        "district" : "Bang Phae", 
        "province" : "Ratchaburi"
    },
    { 
        "_id" : "5756675cf9e03a5be680e25d", 
        "zip" : "70170", 
        "district" : "Wat Phleng", 
        "province" : "Ratchaburi"
    },
    { 
        "_id" : "5756675cf9e03a5be680e25e", 
        "zip" : "70180", 
        "district" : "Ban Kha", 
        "province" : "Ratchaburi"
    },
    { 
        "_id" : "5756675cf9e03a5be680e25f", 
        "zip" : "70180", 
        "district" : "Suan Phueng", 
        "province" : "Ratchaburi"
    },
    { 
        "_id" : "5756675cf9e03a5be680e260", 
        "zip" : "72000", 
        "district" : "Mueang Suphan Buri", 
        "province" : "Suphanburi"
    },
    { 
        "_id" : "5756675cf9e03a5be680e261", 
        "zip" : "72110", 
        "district" : "Song Phi Nong", 
        "province" : "Suphanburi"
    },
    { 
        "_id" : "5756675cf9e03a5be680e262", 
        "zip" : "72120", 
        "district" : "Doembang Nangbuat", 
        "province" : "Suphanburi"
    },
    { 
        "_id" : "5756675cf9e03a5be680e263", 
        "zip" : "72130", 
        "district" : "Sam Chuk", 
        "province" : "Suphanburi"
    },
    { 
        "_id" : "5756675cf9e03a5be680e264", 
        "zip" : "72140", 
        "district" : "Si Prachan", 
        "province" : "Suphanburi"
    },
    { 
        "_id" : "5756675cf9e03a5be680e265", 
        "zip" : "72150", 
        "district" : "Bang Pla Ma", 
        "province" : "Suphanburi"
    },
    { 
        "_id" : "5756675cf9e03a5be680e266", 
        "zip" : "72160", 
        "district" : "U Thong", 
        "province" : "Suphanburi"
    },
    { 
        "_id" : "5756675cf9e03a5be680e267", 
        "zip" : "72170", 
        "district" : "Don Chedi", 
        "province" : "Suphanburi"
    },
    { 
        "_id" : "5756675cf9e03a5be680e268", 
        "zip" : "72180", 
        "district" : "Dan Chang", 
        "province" : "Suphanburi"
    },
    { 
        "_id" : "5756675cf9e03a5be680e269", 
        "zip" : "72240", 
        "district" : "Nong Yasai", 
        "province" : "Suphanburi"
    },
    { 
        "_id" : "5756675cf9e03a5be680e26a", 
        "zip" : "73000", 
        "district" : "Mueang Nakhon Pathom", 
        "province" : "Nakhon Pathom"
    },
    { 
        "_id" : "5756675cf9e03a5be680e26b", 
        "zip" : "73110", 
        "district" : "Sam Phran", 
        "province" : "Nakhon Pathom"
    },
    { 
        "_id" : "5756675cf9e03a5be680e26c", 
        "zip" : "73120", 
        "district" : "Nakhon Chaisi", 
        "province" : "Nakhon Pathom"
    },
    { 
        "_id" : "5756675cf9e03a5be680e26d", 
        "zip" : "73130", 
        "district" : "Bang Len", 
        "province" : "Nakhon Pathom"
    },
    { 
        "_id" : "5756675cf9e03a5be680e26e", 
        "zip" : "73140", 
        "district" : "Khamphaeng Saen", 
        "province" : "Nakhon Pathom"
    },
    { 
        "_id" : "5756675cf9e03a5be680e26f", 
        "zip" : "73150", 
        "district" : "Don Tum", 
        "province" : "Nakhon Pathom"
    },
    { 
        "_id" : "5756675cf9e03a5be680e270", 
        "zip" : "73170", 
        "district" : "Phutha Monthon", 
        "province" : "Nakhon Pathom"
    },
    { 
        "_id" : "5756675cf9e03a5be680e271", 
        "zip" : "74000", 
        "district" : "Mueang Samut Sakhon", 
        "province" : "Samut Sakhon"
    },
    { 
        "_id" : "5756675cf9e03a5be680e272", 
        "zip" : "74110", 
        "district" : "Krathum Baen", 
        "province" : "Samut Sakhon"
    },
    { 
        "_id" : "5756675cf9e03a5be680e273", 
        "zip" : "74120", 
        "district" : "Ban Phaeo", 
        "province" : "Samut Sakhon"
    },
    { 
        "_id" : "5756675cf9e03a5be680e274", 
        "zip" : "75000", 
        "district" : "Mueang Samut Songkhram", 
        "province" : "Samut Songkhram"
    },
    { 
        "_id" : "5756675cf9e03a5be680e275", 
        "zip" : "75110", 
        "district" : "Amphawa", 
        "province" : "Samut Songkhram"
    },
    { 
        "_id" : "5756675cf9e03a5be680e276", 
        "zip" : "75120", 
        "district" : "Bang Khonthi", 
        "province" : "Samut Songkhram"
    },
    { 
        "_id" : "5756675cf9e03a5be680e277", 
        "zip" : "67000", 
        "district" : "Mueang Phetchabun", 
        "province" : "Phetchabun"
    },
    { 
        "_id" : "5756675cf9e03a5be680e278", 
        "zip" : "67110", 
        "district" : "Lom Sak", 
        "province" : "Phetchabun"
    },
    { 
        "_id" : "5756675cf9e03a5be680e279", 
        "zip" : "67120", 
        "district" : "Lom Kao", 
        "province" : "Phetchabun"
    },
    { 
        "_id" : "5756675cf9e03a5be680e27a", 
        "zip" : "67130", 
        "district" : "Wichian Buri", 
        "province" : "Phetchabun"
    },
    { 
        "_id" : "5756675cf9e03a5be680e27b", 
        "zip" : "67140", 
        "district" : "Nong Phai", 
        "province" : "Phetchabun"
    },
    { 
        "_id" : "5756675cf9e03a5be680e27c", 
        "zip" : "67150", 
        "district" : "Chon Daen", 
        "province" : "Phetchabun"
    },
    { 
        "_id" : "5756675cf9e03a5be680e27d", 
        "zip" : "67160", 
        "district" : "Bueng Sam Phan", 
        "province" : "Phetchabun"
    },
    { 
        "_id" : "5756675cf9e03a5be680e27e", 
        "zip" : "67170", 
        "district" : "Si Thep", 
        "province" : "Phetchabun"
    },
    { 
        "_id" : "5756675cf9e03a5be680e27f", 
        "zip" : "67240", 
        "district" : "Wang Pong", 
        "province" : "Phetchabun"
    },
    { 
        "_id" : "5756675cf9e03a5be680e280", 
        "zip" : "67260", 
        "district" : "Nam Nao", 
        "province" : "Phetchabun"
    },
    { 
        "_id" : "5756675cf9e03a5be680e281", 
        "zip" : "67270", 
        "district" : "Khao Kho", 
        "province" : "Phetchabun"
    },
    { 
        "_id" : "5756675cf9e03a5be680e282", 
        "zip" : "76000", 
        "district" : "Mueang Phetchaburi", 
        "province" : "Phetchaburi"
    },
    { 
        "_id" : "5756675cf9e03a5be680e283", 
        "zip" : "76110", 
        "district" : "Ban Laem", 
        "province" : "Phetchaburi"
    },
    { 
        "_id" : "5756675cf9e03a5be680e284", 
        "zip" : "76120", 
        "district" : "Cha-Am", 
        "province" : "Phetchaburi"
    },
    { 
        "_id" : "5756675cf9e03a5be680e285", 
        "zip" : "76130", 
        "district" : "Tha Yang", 
        "province" : "Phetchaburi"
    },
    { 
        "_id" : "5756675cf9e03a5be680e286", 
        "zip" : "76140", 
        "district" : "Khao Yoi", 
        "province" : "Phetchaburi"
    },
    { 
        "_id" : "5756675cf9e03a5be680e287", 
        "zip" : "76150", 
        "district" : "Ban Lat", 
        "province" : "Phetchaburi"
    },
    { 
        "_id" : "5756675cf9e03a5be680e288", 
        "zip" : "76160", 
        "district" : "Nong Ya Plong", 
        "province" : "Phetchaburi"
    },
    { 
        "_id" : "5756675cf9e03a5be680e289", 
        "zip" : "76170", 
        "district" : "Kaeng Krachan", 
        "province" : "Phetchaburi"
    },
    { 
        "_id" : "5756675cf9e03a5be680e28a", 
        "zip" : "81000", 
        "district" : "Mueang Krabi", 
        "province" : "Krabi"
    },
    { 
        "_id" : "5756675cf9e03a5be680e28b", 
        "zip" : "81110", 
        "district" : "Ao luek", 
        "province" : "Krabi"
    },
    { 
        "_id" : "5756675cf9e03a5be680e28c", 
        "zip" : "81120", 
        "district" : "Khlong Thom", 
        "province" : "Krabi"
    },
    { 
        "_id" : "5756675cf9e03a5be680e28d", 
        "zip" : "81120", 
        "district" : "Lam Thap", 
        "province" : "Krabi"
    },
    { 
        "_id" : "5756675cf9e03a5be680e28e", 
        "zip" : "81130", 
        "district" : "Nuea Khlong", 
        "province" : "Krabi"
    },
    { 
        "_id" : "5756675cf9e03a5be680e28f", 
        "zip" : "81140", 
        "district" : "Khao Phanom", 
        "province" : "Krabi"
    },
    { 
        "_id" : "5756675cf9e03a5be680e290", 
        "zip" : "81150", 
        "district" : "Ko Lanta", 
        "province" : "Krabi"
    },
    { 
        "_id" : "5756675cf9e03a5be680e291", 
        "zip" : "81160", 
        "district" : "Plai Phraya", 
        "province" : "Krabi"
    },
    { 
        "_id" : "5756675cf9e03a5be680e292", 
        "zip" : "82000", 
        "district" : "Mueang Phang Nga", 
        "province" : "Phang Nga"
    },
    { 
        "_id" : "5756675cf9e03a5be680e293", 
        "zip" : "82110", 
        "district" : "Takua Pa", 
        "province" : "Phang Nga"
    },
    { 
        "_id" : "5756675cf9e03a5be680e294", 
        "zip" : "82120", 
        "district" : "Thai Mueang", 
        "province" : "Phang Nga"
    },
    { 
        "_id" : "5756675cf9e03a5be680e295", 
        "zip" : "82130", 
        "district" : "Takua Thung", 
        "province" : "Phang Nga"
    },
    { 
        "_id" : "5756675cf9e03a5be680e296", 
        "zip" : "82150", 
        "district" : "Khura Buri", 
        "province" : "Phang Nga"
    },
    { 
        "_id" : "5756675cf9e03a5be680e297", 
        "zip" : "82160", 
        "district" : "Ko Yao", 
        "province" : "Phang Nga"
    },
    { 
        "_id" : "5756675cf9e03a5be680e298", 
        "zip" : "82170", 
        "district" : "Kapong", 
        "province" : "Phang Nga"
    },
    { 
        "_id" : "5756675cf9e03a5be680e299", 
        "zip" : "82180", 
        "district" : "Thap Put", 
        "province" : "Phang Nga"
    },
    { 
        "_id" : "5756675cf9e03a5be680e29a", 
        "zip" : "83000", 
        "district" : "Mueang Phuket", 
        "province" : "Phuket"
    },
    { 
        "_id" : "5756675cf9e03a5be680e29b", 
        "zip" : "83110", 
        "district" : "Thalang", 
        "province" : "Phuket"
    },
    { 
        "_id" : "5756675cf9e03a5be680e29c", 
        "zip" : "83120", 
        "district" : "Kathu", 
        "province" : "Phuket"
    },
    { 
        "_id" : "5756675cf9e03a5be680e29d", 
        "zip" : "84000", 
        "district" : "Mueang Surat Thani", 
        "province" : "Surat Thani"
    },
    { 
        "_id" : "5756675cf9e03a5be680e29e", 
        "zip" : "84110", 
        "district" : "Chaiya", 
        "province" : "Surat Thani"
    },
    { 
        "_id" : "5756675cf9e03a5be680e29f", 
        "zip" : "84120", 
        "district" : "Ban Na San", 
        "province" : "Surat Thani"
    },
    { 
        "_id" : "5756675cf9e03a5be680e2a0", 
        "zip" : "84130", 
        "district" : "Phunphin", 
        "province" : "Surat Thani"
    },
    { 
        "_id" : "5756675cf9e03a5be680e2a1", 
        "zip" : "84140", 
        "district" : "Ko Samui", 
        "province" : "Surat Thani"
    },
    { 
        "_id" : "5756675cf9e03a5be680e2a2", 
        "zip" : "84150", 
        "district" : "Tha Chang", 
        "province" : "Surat Thani"
    },
    { 
        "_id" : "5756675cf9e03a5be680e2a3", 
        "zip" : "84160", 
        "district" : "Kanchanadit", 
        "province" : "Surat Thani"
    },
    { 
        "_id" : "5756675cf9e03a5be680e2a4", 
        "zip" : "84170", 
        "district" : "Tha Chana", 
        "province" : "Surat Thani"
    },
    { 
        "_id" : "5756675cf9e03a5be680e2a5", 
        "zip" : "84180", 
        "district" : "Wiphawadi", 
        "province" : "Surat Thani"
    },
    { 
        "_id" : "5756675cf9e03a5be680e2a6", 
        "zip" : "84180", 
        "district" : "Khiri Rat Nikhom", 
        "province" : "Surat Thani"
    },
    { 
        "_id" : "5756675cf9e03a5be680e2a7", 
        "zip" : "84190", 
        "district" : "Wiang Sa", 
        "province" : "Surat Thani"
    },
    { 
        "_id" : "5756675cf9e03a5be680e2a8", 
        "zip" : "84210", 
        "district" : "Chai Buri", 
        "province" : "Surat Thani"
    },
    { 
        "_id" : "5756675cf9e03a5be680e2a9", 
        "zip" : "84210", 
        "district" : "Phrasaeng", 
        "province" : "Surat Thani"
    },
    { 
        "_id" : "5756675cf9e03a5be680e2aa", 
        "zip" : "84220", 
        "district" : "Don Sak", 
        "province" : "Surat Thani"
    },
    { 
        "_id" : "5756675cf9e03a5be680e2ab", 
        "zip" : "84230", 
        "district" : "Ban Ta Khun", 
        "province" : "Surat Thani"
    },
    { 
        "_id" : "5756675cf9e03a5be680e2ac", 
        "zip" : "84240", 
        "district" : "Ban Na Doem", 
        "province" : "Surat Thani"
    },
    { 
        "_id" : "5756675cf9e03a5be680e2ad", 
        "zip" : "84250", 
        "district" : "Phanom", 
        "province" : "Surat Thani"
    },
    { 
        "_id" : "5756675cf9e03a5be680e2ae", 
        "zip" : "84260", 
        "district" : "Khian Sa", 
        "province" : "Surat Thani"
    },
    { 
        "_id" : "5756675cf9e03a5be680e2af", 
        "zip" : "84280", 
        "district" : "Ko Pha-ngan", 
        "province" : "Surat Thani"
    },
    { 
        "_id" : "5756675cf9e03a5be680e2b0", 
        "zip" : "85000", 
        "district" : "Mueang Ranong", 
        "province" : "Ranong"
    },
    { 
        "_id" : "5756675cf9e03a5be680e2b1", 
        "zip" : "85110", 
        "district" : "Kra Buri", 
        "province" : "Ranong"
    },
    { 
        "_id" : "5756675cf9e03a5be680e2b2", 
        "zip" : "85120", 
        "district" : "Suk Samran", 
        "province" : "Ranong"
    },
    { 
        "_id" : "5756675cf9e03a5be680e2b3", 
        "zip" : "85120", 
        "district" : "Kapoe", 
        "province" : "Ranong"
    },
    { 
        "_id" : "5756675cf9e03a5be680e2b4", 
        "zip" : "85130", 
        "district" : "La-Un", 
        "province" : "Ranong"
    },
    { 
        "_id" : "5756675cf9e03a5be680e2b5", 
        "zip" : "90000", 
        "district" : "Mueang Songkhla", 
        "province" : "Songkhla"
    },
    { 
        "_id" : "5756675cf9e03a5be680e2b6", 
        "zip" : "90110", 
        "district" : "Bang Klam", 
        "province" : "Songkhla"
    },
    { 
        "_id" : "5756675cf9e03a5be680e2b7", 
        "zip" : "90110", 
        "district" : "Hat Yai", 
        "province" : "Songkhla"
    },
    { 
        "_id" : "5756675cf9e03a5be680e2b8", 
        "zip" : "90120", 
        "district" : "Sa Dao", 
        "province" : "Songkhla"
    },
    { 
        "_id" : "5756675cf9e03a5be680e2b9", 
        "zip" : "90130", 
        "district" : "Chana", 
        "province" : "Songkhla"
    },
    { 
        "_id" : "5756675cf9e03a5be680e2ba", 
        "zip" : "90140", 
        "district" : "Ranot", 
        "province" : "Songkhla"
    },
    { 
        "_id" : "5756675cf9e03a5be680e2bb", 
        "zip" : "90150", 
        "district" : "Thepha", 
        "province" : "Songkhla"
    },
    { 
        "_id" : "5756675cf9e03a5be680e2bc", 
        "zip" : "90160", 
        "district" : "Na Thawi", 
        "province" : "Songkhla"
    },
    { 
        "_id" : "5756675cf9e03a5be680e2bd", 
        "zip" : "90180", 
        "district" : "Rattapum", 
        "province" : "Songkhla"
    },
    { 
        "_id" : "5756675cf9e03a5be680e2be", 
        "zip" : "90190", 
        "district" : "Sating Phra", 
        "province" : "Songkhla"
    },
    { 
        "_id" : "5756675cf9e03a5be680e2bf", 
        "zip" : "90210", 
        "district" : "Sabayoi", 
        "province" : "Songkhla"
    },
    { 
        "_id" : "5756675cf9e03a5be680e2c0", 
        "zip" : "90220", 
        "district" : "Kuan Niang", 
        "province" : "Songkhla"
    },
    { 
        "_id" : "5756675cf9e03a5be680e2c1", 
        "zip" : "90230", 
        "district" : "Khlong Hoi Khong", 
        "province" : "Songkhla"
    },
    { 
        "_id" : "5756675cf9e03a5be680e2c2", 
        "zip" : "90270", 
        "district" : "Krasae Sin", 
        "province" : "Songkhla"
    },
    { 
        "_id" : "5756675cf9e03a5be680e2c3", 
        "zip" : "90310", 
        "district" : "Na Mom", 
        "province" : "Songkhla"
    },
    { 
        "_id" : "5756675cf9e03a5be680e2c4", 
        "zip" : "90330", 
        "district" : "Singhanakhon", 
        "province" : "Songkhla"
    },
    { 
        "_id" : "5756675cf9e03a5be680e2c5", 
        "zip" : "91000", 
        "district" : "Mueang Satun", 
        "province" : "Satun"
    },
    { 
        "_id" : "5756675cf9e03a5be680e2c6", 
        "zip" : "91110", 
        "district" : "Langu", 
        "province" : "Satun"
    },
    { 
        "_id" : "5756675cf9e03a5be680e2c7", 
        "zip" : "91120", 
        "district" : "Thung Wa", 
        "province" : "Satun"
    },
    { 
        "_id" : "5756675cf9e03a5be680e2c8", 
        "zip" : "91130", 
        "district" : "Khuan Ka Long", 
        "province" : "Satun"
    },
    { 
        "_id" : "5756675cf9e03a5be680e2c9", 
        "zip" : "91130", 
        "district" : "Manung", 
        "province" : "Satun"
    },
    { 
        "_id" : "5756675cf9e03a5be680e2ca", 
        "zip" : "91150", 
        "district" : "Tha Phae", 
        "province" : "Satun"
    },
    { 
        "_id" : "5756675cf9e03a5be680e2cb", 
        "zip" : "91160", 
        "district" : "Khuan Don", 
        "province" : "Satun"
    },
    { 
        "_id" : "5756675cf9e03a5be680e2cc", 
        "zip" : "92000", 
        "district" : "Mueang Trang", 
        "province" : "Trang"
    },
    { 
        "_id" : "5756675cf9e03a5be680e2cd", 
        "zip" : "92110", 
        "district" : "Kantang", 
        "province" : "Trang"
    },
    { 
        "_id" : "5756675cf9e03a5be680e2ce", 
        "zip" : "92120", 
        "district" : "Hat Samran", 
        "province" : "Trang"
    },
    { 
        "_id" : "5756675df9e03a5be680e2cf", 
        "zip" : "92120", 
        "district" : "Palian", 
        "province" : "Trang"
    },
    { 
        "_id" : "5756675df9e03a5be680e2d0", 
        "zip" : "92130", 
        "district" : "Huai Yot", 
        "province" : "Trang"
    },
    { 
        "_id" : "5756675df9e03a5be680e2d1", 
        "zip" : "92140", 
        "district" : "Yan Ta Khao", 
        "province" : "Trang"
    },
    { 
        "_id" : "5756675df9e03a5be680e2d2", 
        "zip" : "92150", 
        "district" : "Sikao", 
        "province" : "Trang"
    },
    { 
        "_id" : "5756675df9e03a5be680e2d3", 
        "zip" : "92160", 
        "district" : "Rachada", 
        "province" : "Trang"
    },
    { 
        "_id" : "5756675df9e03a5be680e2d4", 
        "zip" : "92170", 
        "district" : "Na Yong", 
        "province" : "Trang"
    },
    { 
        "_id" : "5756675df9e03a5be680e2d5", 
        "zip" : "92220", 
        "district" : "Wang Wiset", 
        "province" : "Trang"
    },
    { 
        "_id" : "5756675df9e03a5be680e2d6", 
        "zip" : "94000", 
        "district" : "Mueang Pattani", 
        "province" : "Pattani"
    },
    { 
        "_id" : "5756675df9e03a5be680e2d7", 
        "zip" : "94110", 
        "district" : "Sai Buri", 
        "province" : "Pattani"
    },
    { 
        "_id" : "5756675df9e03a5be680e2d8", 
        "zip" : "94120", 
        "district" : "Khok Pho", 
        "province" : "Pattani"
    },
    { 
        "_id" : "5756675df9e03a5be680e2d9", 
        "zip" : "94130", 
        "district" : "Panare", 
        "province" : "Pattani"
    },
    { 
        "_id" : "5756675df9e03a5be680e2da", 
        "zip" : "94140", 
        "district" : "Thung Yang Daeng", 
        "province" : "Pattani"
    },
    { 
        "_id" : "5756675df9e03a5be680e2db", 
        "zip" : "94140", 
        "district" : "Mayo", 
        "province" : "Pattani"
    },
    { 
        "_id" : "5756675df9e03a5be680e2dc", 
        "zip" : "94150", 
        "district" : "Yaring", 
        "province" : "Pattani"
    },
    { 
        "_id" : "5756675df9e03a5be680e2dd", 
        "zip" : "94160", 
        "district" : "Yarang", 
        "province" : "Pattani"
    },
    { 
        "_id" : "5756675df9e03a5be680e2de", 
        "zip" : "94170", 
        "district" : "Nong Chik", 
        "province" : "Pattani"
    },
    { 
        "_id" : "5756675df9e03a5be680e2df", 
        "zip" : "94180", 
        "district" : "Mae Lan", 
        "province" : "Pattani"
    },
    { 
        "_id" : "5756675df9e03a5be680e2e0", 
        "zip" : "94220", 
        "district" : "Mai Kaen", 
        "province" : "Pattani"
    },
    { 
        "_id" : "5756675df9e03a5be680e2e1", 
        "zip" : "94230", 
        "district" : "Kpho", 
        "province" : "Pattani"
    },
    { 
        "_id" : "5756675df9e03a5be680e2e2", 
        "zip" : "95000", 
        "district" : "Mueang Yala", 
        "province" : "Yala"
    },
    { 
        "_id" : "5756675df9e03a5be680e2e3", 
        "zip" : "95000", 
        "district" : "Kung Pinung", 
        "province" : "Yala"
    },
    { 
        "_id" : "5756675df9e03a5be680e2e4", 
        "zip" : "95110", 
        "district" : "Betong", 
        "province" : "Yala"
    },
    { 
        "_id" : "5756675df9e03a5be680e2e5", 
        "zip" : "95120", 
        "district" : "Yaha", 
        "province" : "Yala"
    },
    { 
        "_id" : "5756675df9e03a5be680e2e6", 
        "zip" : "95120", 
        "district" : "Kabang", 
        "province" : "Yala"
    },
    { 
        "_id" : "5756675df9e03a5be680e2e7", 
        "zip" : "95130", 
        "district" : "Bannang Sata", 
        "province" : "Yala"
    },
    { 
        "_id" : "5756675df9e03a5be680e2e8", 
        "zip" : "95140", 
        "district" : "Raman", 
        "province" : "Yala"
    },
    { 
        "_id" : "5756675df9e03a5be680e2e9", 
        "zip" : "95150", 
        "district" : "Than To", 
        "province" : "Yala"
    },
    { 
        "_id" : "5756675df9e03a5be680e2ea", 
        "zip" : "96000", 
        "district" : "Mueang Narathiwat", 
        "province" : "Narathiwat"
    },
    { 
        "_id" : "5756675df9e03a5be680e2eb", 
        "zip" : "96110", 
        "district" : "Tak Bai", 
        "province" : "Narathiwat"
    },
    { 
        "_id" : "5756675df9e03a5be680e2ec", 
        "zip" : "96120", 
        "district" : "Sungai Kolok", 
        "province" : "Narathiwat"
    },
    { 
        "_id" : "5756675df9e03a5be680e2ed", 
        "zip" : "96130", 
        "district" : "Rangae", 
        "province" : "Narathiwat"
    },
    { 
        "_id" : "5756675df9e03a5be680e2ee", 
        "zip" : "96130", 
        "district" : "Jao I Rong", 
        "province" : "Narathiwat"
    },
    { 
        "_id" : "5756675df9e03a5be680e2ef", 
        "zip" : "96140", 
        "district" : "Sungai Padi", 
        "province" : "Narathiwat"
    },
    { 
        "_id" : "5756675df9e03a5be680e2f0", 
        "zip" : "96150", 
        "district" : "Ruso", 
        "province" : "Narathiwat"
    },
    { 
        "_id" : "5756675df9e03a5be680e2f1", 
        "zip" : "96160", 
        "district" : "Waeng", 
        "province" : "Narathiwat"
    },
    { 
        "_id" : "5756675df9e03a5be680e2f2", 
        "zip" : "96170", 
        "district" : "Bacho", 
        "province" : "Narathiwat"
    },
    { 
        "_id" : "5756675df9e03a5be680e2f3", 
        "zip" : "96180", 
        "district" : "Yi-Ngo", 
        "province" : "Narathiwat"
    },
    { 
        "_id" : "5756675df9e03a5be680e2f4", 
        "zip" : "96190", 
        "district" : "Sukhirin", 
        "province" : "Narathiwat"
    },
    { 
        "_id" : "5756675df9e03a5be680e2f5", 
        "zip" : "96210", 
        "district" : "Si Sakhon", 
        "province" : "Narathiwat"
    },
    { 
        "_id" : "5756675df9e03a5be680e2f6", 
        "zip" : "96220", 
        "district" : "Chanae", 
        "province" : "Narathiwat"
    },
    { 
        "_id" : "5756675df9e03a5be680e2f7", 
        "zip" : "13000", 
        "district" : "Pharnakhon Si Ayutthaya", 
        "province" : "Phranakhon Si Ayutthaya"
    },
    { 
        "_id" : "5756675df9e03a5be680e2f8", 
        "zip" : "13110", 
        "district" : "Sena", 
        "province" : "Phranakhon Si Ayutthaya"
    },
    { 
        "_id" : "5756675df9e03a5be680e2f9", 
        "zip" : "13120", 
        "district" : "Pak Hai", 
        "province" : "Phranakhon Si Ayutthaya"
    },
    { 
        "_id" : "5756675df9e03a5be680e2fa", 
        "zip" : "13130", 
        "district" : "Tha Ruea", 
        "province" : "Phranakhon Si Ayutthaya"
    },
    { 
        "_id" : "5756675df9e03a5be680e2fb", 
        "zip" : "13140", 
        "district" : "Phachi", 
        "province" : "Phranakhon Si Ayutthaya"
    },
    { 
        "_id" : "5756675df9e03a5be680e2fc", 
        "zip" : "13150", 
        "district" : "Maha Rat", 
        "province" : "Phranakhon Si Ayutthaya"
    },
    { 
        "_id" : "5756675df9e03a5be680e2fd", 
        "zip" : "13160", 
        "district" : "Bang Pa-In", 
        "province" : "Phranakhon Si Ayutthaya"
    },
    { 
        "_id" : "5756675df9e03a5be680e2fe", 
        "zip" : "13170", 
        "district" : "Wang Noi", 
        "province" : "Phranakhon Si Ayutthaya"
    },
    { 
        "_id" : "5756675df9e03a5be680e2ff", 
        "zip" : "13190", 
        "district" : "Bang Sai", 
        "province" : "Phranakhon Si Ayutthaya"
    },
    { 
        "_id" : "5756675df9e03a5be680e300", 
        "zip" : "13210", 
        "district" : "Uthai", 
        "province" : "Phranakhon Si Ayutthaya"
    },
    { 
        "_id" : "5756675df9e03a5be680e301", 
        "zip" : "13220", 
        "district" : "Bang Pahan", 
        "province" : "Phranakhon Si Ayutthaya"
    },
    { 
        "_id" : "5756675df9e03a5be680e302", 
        "zip" : "13230", 
        "district" : "Lat Bua Luang", 
        "province" : "Phranakhon Si Ayutthaya"
    },
    { 
        "_id" : "5756675df9e03a5be680e303", 
        "zip" : "13240", 
        "district" : "Ban Phraek", 
        "province" : "Phranakhon Si Ayutthaya"
    },
    { 
        "_id" : "5756675df9e03a5be680e304", 
        "zip" : "13250", 
        "district" : "Bang Ban", 
        "province" : "Phranakhon Si Ayutthaya"
    },
    { 
        "_id" : "5756675df9e03a5be680e305", 
        "zip" : "13260", 
        "district" : "Nakhon Luang", 
        "province" : "Phranakhon Si Ayutthaya"
    },
    { 
        "_id" : "5756675df9e03a5be680e306", 
        "zip" : "13270", 
        "district" : "Bang Sai", 
        "province" : "Phranakhon Si Ayutthaya"
    },
    { 
        "_id" : "5756675df9e03a5be680e307", 
        "zip" : "15000", 
        "district" : "Mueang Lopburi", 
        "province" : "Lopburi"
    },
    { 
        "_id" : "5756675df9e03a5be680e308", 
        "zip" : "15110", 
        "district" : "Ban Mi", 
        "province" : "Lopburi"
    },
    { 
        "_id" : "5756675df9e03a5be680e309", 
        "zip" : "15120", 
        "district" : "Khok Samrong", 
        "province" : "Lopburi"
    },
    { 
        "_id" : "5756675df9e03a5be680e30a", 
        "zip" : "15130", 
        "district" : "Chai Badan", 
        "province" : "Lopburi"
    },
    { 
        "_id" : "5756675df9e03a5be680e30b", 
        "zip" : "15130", 
        "district" : "Tha Luang", 
        "province" : "Lopburi"
    },
    { 
        "_id" : "5756675df9e03a5be680e30c", 
        "zip" : "15140", 
        "district" : "Phatthana Nikhom", 
        "province" : "Lopburi"
    },
    { 
        "_id" : "5756675df9e03a5be680e30d", 
        "zip" : "15150", 
        "district" : "Tha Wung", 
        "province" : "Lopburi"
    },
    { 
        "_id" : "5756675df9e03a5be680e30e", 
        "zip" : "15170", 
        "district" : "Nong Muang", 
        "province" : "Lopburi"
    },
    { 
        "_id" : "5756675df9e03a5be680e30f", 
        "zip" : "15190", 
        "district" : "Lum Sunthi", 
        "province" : "Lopburi"
    },
    { 
        "_id" : "5756675df9e03a5be680e310", 
        "zip" : "15240", 
        "district" : "Sa Bot", 
        "province" : "Lopburi"
    },
    { 
        "_id" : "5756675df9e03a5be680e311", 
        "zip" : "15250", 
        "district" : "Khok Charoen", 
        "province" : "Lopburi"
    },
    { 
        "_id" : "5756675df9e03a5be680e312", 
        "zip" : "16000", 
        "district" : "Mueang Sing Buri", 
        "province" : "Singburi"
    },
    { 
        "_id" : "5756675df9e03a5be680e313", 
        "zip" : "16110", 
        "district" : "In Buri", 
        "province" : "Singburi"
    },
    { 
        "_id" : "5756675df9e03a5be680e314", 
        "zip" : "16120", 
        "district" : "Phrom Buri", 
        "province" : "Singburi"
    },
    { 
        "_id" : "5756675df9e03a5be680e315", 
        "zip" : "16130", 
        "district" : "Bang Rachan", 
        "province" : "Singburi"
    },
    { 
        "_id" : "5756675df9e03a5be680e316", 
        "zip" : "16140", 
        "district" : "Tha Chang", 
        "province" : "Singburi"
    },
    { 
        "_id" : "5756675df9e03a5be680e317", 
        "zip" : "16150", 
        "district" : "Khai Bang Rachan", 
        "province" : "Singburi"
    },
    { 
        "_id" : "5756675df9e03a5be680e318", 
        "zip" : "17000", 
        "district" : "Mueang Chainat", 
        "province" : "Chainat"
    },
    { 
        "_id" : "5756675df9e03a5be680e319", 
        "zip" : "17100", 
        "district" : "Nong Mamong", 
        "province" : "Chainat"
    },
    { 
        "_id" : "5756675df9e03a5be680e31a", 
        "zip" : "17110", 
        "district" : "Manorom", 
        "province" : "Chainat"
    },
    { 
        "_id" : "5756675df9e03a5be680e31b", 
        "zip" : "17120", 
        "district" : "Wat Sing", 
        "province" : "Chainat"
    },
    { 
        "_id" : "5756675df9e03a5be680e31c", 
        "zip" : "17130", 
        "district" : "Noen Kham", 
        "province" : "Chainat"
    },
    { 
        "_id" : "5756675df9e03a5be680e31d", 
        "zip" : "17130", 
        "district" : "Hankha", 
        "province" : "Chainat"
    },
    { 
        "_id" : "5756675df9e03a5be680e31e", 
        "zip" : "17140", 
        "district" : "Sankhaburi", 
        "province" : "Chainat"
    },
    { 
        "_id" : "5756675df9e03a5be680e31f", 
        "zip" : "17150", 
        "district" : "Sanphaya", 
        "province" : "Chainat"
    },
    { 
        "_id" : "5756675df9e03a5be680e320", 
        "zip" : "20000", 
        "district" : "Mueang Chonburi", 
        "province" : "Chonburi"
    },
    { 
        "_id" : "5756675df9e03a5be680e321", 
        "zip" : "20110", 
        "district" : "Si Racha", 
        "province" : "Chonburi"
    },
    { 
        "_id" : "5756675df9e03a5be680e322", 
        "zip" : "20120", 
        "district" : "Ko Sichang", 
        "province" : "Chonburi"
    },
    { 
        "_id" : "5756675df9e03a5be680e323", 
        "zip" : "20140", 
        "district" : "Phanat Nikhom", 
        "province" : "Chonburi"
    },
    { 
        "_id" : "5756675df9e03a5be680e324", 
        "zip" : "20150", 
        "district" : "Bang Lamung", 
        "province" : "Chonburi"
    },
    { 
        "_id" : "5756675df9e03a5be680e325", 
        "zip" : "20160", 
        "district" : "Phan Thong", 
        "province" : "Chonburi"
    },
    { 
        "_id" : "5756675df9e03a5be680e326", 
        "zip" : "20170", 
        "district" : "Ban Bueng", 
        "province" : "Chonburi"
    },
    { 
        "_id" : "5756675df9e03a5be680e327", 
        "zip" : "20180", 
        "district" : "Sattahip", 
        "province" : "Chonburi"
    },
    { 
        "_id" : "5756675df9e03a5be680e328", 
        "zip" : "20190", 
        "district" : "Nong Yai", 
        "province" : "Chonburi"
    },
    { 
        "_id" : "5756675df9e03a5be680e329", 
        "zip" : "20240", 
        "district" : "Ko Chan", 
        "province" : "Chonburi"
    },
    { 
        "_id" : "5756675df9e03a5be680e32a", 
        "zip" : "20270", 
        "district" : "Bo Thong", 
        "province" : "Chonburi"
    },
    { 
        "_id" : "5756675df9e03a5be680e32b", 
        "zip" : "25000", 
        "district" : "Mueang Prachinburi", 
        "province" : "Prachinburi"
    },
    { 
        "_id" : "5756675df9e03a5be680e32c", 
        "zip" : "25110", 
        "district" : "Kabin Buri", 
        "province" : "Prachinburi"
    },
    { 
        "_id" : "5756675df9e03a5be680e32d", 
        "zip" : "25130", 
        "district" : "Prachantakham", 
        "province" : "Prachinburi"
    },
    { 
        "_id" : "5756675df9e03a5be680e32e", 
        "zip" : "25140", 
        "district" : "Si Maha Phot", 
        "province" : "Prachinburi"
    },
    { 
        "_id" : "5756675df9e03a5be680e32f", 
        "zip" : "25150", 
        "district" : "Ban Sang", 
        "province" : "Prachinburi"
    },
    { 
        "_id" : "5756675df9e03a5be680e330", 
        "zip" : "25190", 
        "district" : "Si Mahosot", 
        "province" : "Prachinburi"
    },
    { 
        "_id" : "5756675df9e03a5be680e331", 
        "zip" : "25190", 
        "district" : "Khok Pip", 
        "province" : "Prachinburi"
    },
    { 
        "_id" : "5756675df9e03a5be680e332", 
        "zip" : "25220", 
        "district" : "Na Di", 
        "province" : "Prachinburi"
    },
    { 
        "_id" : "5756675df9e03a5be680e333", 
        "zip" : "31000", 
        "district" : "Mueang Buri Ram", 
        "province" : "Burirum"
    },
    { 
        "_id" : "5756675df9e03a5be680e334", 
        "zip" : "31000", 
        "district" : "Huai Rat", 
        "province" : "Burirum"
    },
    { 
        "_id" : "5756675df9e03a5be680e335", 
        "zip" : "31000", 
        "district" : "Ban Dan", 
        "province" : "Burirum"
    },
    { 
        "_id" : "5756675df9e03a5be680e336", 
        "zip" : "31110", 
        "district" : "Cham Ni", 
        "province" : "Burirum"
    },
    { 
        "_id" : "5756675df9e03a5be680e337", 
        "zip" : "31110", 
        "district" : "Non Suwan", 
        "province" : "Burirum"
    },
    { 
        "_id" : "5756675df9e03a5be680e338", 
        "zip" : "31110", 
        "district" : "Nang Rong", 
        "province" : "Burirum"
    },
    { 
        "_id" : "5756675df9e03a5be680e339", 
        "zip" : "31110", 
        "district" : "Chaloem Phra Kiat", 
        "province" : "Burirum"
    },
    { 
        "_id" : "5756675df9e03a5be680e33a", 
        "zip" : "31120", 
        "district" : "Banmai Chaiphot", 
        "province" : "Burirum"
    },
    { 
        "_id" : "5756675df9e03a5be680e33b", 
        "zip" : "31120", 
        "district" : "Phutthaisong", 
        "province" : "Burirum"
    },
    { 
        "_id" : "5756675df9e03a5be680e33c", 
        "zip" : "31130", 
        "district" : "Lam Plai Mat", 
        "province" : "Burirum"
    },
    { 
        "_id" : "5756675df9e03a5be680e33d", 
        "zip" : "31140", 
        "district" : "Prakhon Chai", 
        "province" : "Burirum"
    },
    { 
        "_id" : "5756675df9e03a5be680e33e", 
        "zip" : "31150", 
        "district" : "Satuek", 
        "province" : "Burirum"
    },
    { 
        "_id" : "5756675df9e03a5be680e33f", 
        "zip" : "31150", 
        "district" : "Kandong", 
        "province" : "Burirum"
    },
    { 
        "_id" : "5756675df9e03a5be680e340", 
        "zip" : "31160", 
        "district" : "Krasang", 
        "province" : "Burirum"
    },
    { 
        "_id" : "5756675df9e03a5be680e341", 
        "zip" : "31170", 
        "district" : "Lahan Sai", 
        "province" : "Burirum"
    },
    { 
        "_id" : "5756675df9e03a5be680e342", 
        "zip" : "31180", 
        "district" : "Ban Kruat", 
        "province" : "Burirum"
    },
    { 
        "_id" : "5756675df9e03a5be680e343", 
        "zip" : "31190", 
        "district" : "Khu Mueang", 
        "province" : "Burirum"
    },
    { 
        "_id" : "5756675df9e03a5be680e344", 
        "zip" : "31210", 
        "district" : "Nong Ki", 
        "province" : "Burirum"
    },
    { 
        "_id" : "5756675df9e03a5be680e345", 
        "zip" : "31220", 
        "district" : "Pak Kam", 
        "province" : "Burirum"
    },
    { 
        "_id" : "5756675df9e03a5be680e346", 
        "zip" : "31230", 
        "district" : "Na Pho", 
        "province" : "Burirum"
    },
    { 
        "_id" : "5756675df9e03a5be680e347", 
        "zip" : "31240", 
        "district" : "Nong Hong", 
        "province" : "Burirum"
    },
    { 
        "_id" : "5756675df9e03a5be680e348", 
        "zip" : "31250", 
        "district" : "Ban Phlapphla", 
        "province" : "Burirum"
    },
    { 
        "_id" : "5756675df9e03a5be680e349", 
        "zip" : "31260", 
        "district" : "Non Dindaeng", 
        "province" : "Burirum"
    },
    { 
        "_id" : "5756675df9e03a5be680e34a", 
        "zip" : "33000", 
        "district" : "Mueang Sisaket", 
        "province" : "Sisaket"
    },
    { 
        "_id" : "5756675df9e03a5be680e34b", 
        "zip" : "33110", 
        "district" : "Kantharalak", 
        "province" : "Sisaket"
    },
    { 
        "_id" : "5756675df9e03a5be680e34c", 
        "zip" : "33110", 
        "district" : "Benchalak", 
        "province" : "Sisaket"
    },
    { 
        "_id" : "5756675df9e03a5be680e34d", 
        "zip" : "33120", 
        "district" : "Po Sri Suwan", 
        "province" : "Sisaket"
    },
    { 
        "_id" : "5756675df9e03a5be680e34e", 
        "zip" : "33120", 
        "district" : "Uthumphon Phisai", 
        "province" : "Sisaket"
    },
    { 
        "_id" : "5756675df9e03a5be680e34f", 
        "zip" : "33120", 
        "district" : "Mueang Chan", 
        "province" : "Sisaket"
    },
    { 
        "_id" : "5756675df9e03a5be680e350", 
        "zip" : "33130", 
        "district" : "Nam Kliang", 
        "province" : "Sisaket"
    },
    { 
        "_id" : "5756675df9e03a5be680e351", 
        "zip" : "33130", 
        "district" : "Kanthararom", 
        "province" : "Sisaket"
    },
    { 
        "_id" : "5756675df9e03a5be680e352", 
        "zip" : "33140", 
        "district" : "Pu Sing", 
        "province" : "Sisaket"
    },
    { 
        "_id" : "5756675df9e03a5be680e353", 
        "zip" : "33140", 
        "district" : "Khukhan", 
        "province" : "Sisaket"
    },
    { 
        "_id" : "5756675df9e03a5be680e354", 
        "zip" : "33150", 
        "district" : "Khun Han", 
        "province" : "Sisaket"
    },
    { 
        "_id" : "5756675df9e03a5be680e355", 
        "zip" : "33160", 
        "district" : "Rasi Salai", 
        "province" : "Sisaket"
    },
    { 
        "_id" : "5756675df9e03a5be680e356", 
        "zip" : "33160", 
        "district" : "Sila Lat", 
        "province" : "Sisaket"
    },
    { 
        "_id" : "5756675df9e03a5be680e357", 
        "zip" : "33170", 
        "district" : "Prang Ku", 
        "province" : "Sisaket"
    },
    { 
        "_id" : "5756675df9e03a5be680e358", 
        "zip" : "33180", 
        "district" : "Phrai Bueng", 
        "province" : "Sisaket"
    },
    { 
        "_id" : "5756675df9e03a5be680e359", 
        "zip" : "33190", 
        "district" : "Yang Chum Noi", 
        "province" : "Sisaket"
    },
    { 
        "_id" : "5756675df9e03a5be680e35a", 
        "zip" : "33210", 
        "district" : "Huai Thap Than", 
        "province" : "Sisaket"
    },
    { 
        "_id" : "5756675df9e03a5be680e35b", 
        "zip" : "33220", 
        "district" : "Bueng Bun", 
        "province" : "Sisaket"
    },
    { 
        "_id" : "5756675df9e03a5be680e35c", 
        "zip" : "33230", 
        "district" : "Phayu", 
        "province" : "Sisaket"
    },
    { 
        "_id" : "5756675df9e03a5be680e35d", 
        "zip" : "33240", 
        "district" : "Si Rattana", 
        "province" : "Sisaket"
    },
    { 
        "_id" : "5756675df9e03a5be680e35e", 
        "zip" : "33250", 
        "district" : "Non Khun", 
        "province" : "Sisaket"
    },
    { 
        "_id" : "5756675df9e03a5be680e35f", 
        "zip" : "33270", 
        "district" : "Wang Hin", 
        "province" : "Sisaket"
    },
    { 
        "_id" : "5756675df9e03a5be680e360", 
        "zip" : "34110", 
        "district" : "Phibun Mangsahan", 
        "province" : "Na Tan"
    },
    { 
        "_id" : "5756675df9e03a5be680e361", 
        "zip" : "34130", 
        "district" : "Trakan Phuet Phon", 
        "province" : "Na Tan"
    },
    { 
        "_id" : "5756675df9e03a5be680e362", 
        "zip" : "34160", 
        "district" : "Thung Si Udom", 
        "province" : "Na Tan"
    },
    { 
        "_id" : "5756675df9e03a5be680e363", 
        "zip" : "34160", 
        "district" : "Na Yia", 
        "province" : "Na Tan"
    },
    { 
        "_id" : "5756675df9e03a5be680e364", 
        "zip" : "34190", 
        "district" : "sawang wirawong", 
        "province" : "Na Tan"
    },
    { 
        "_id" : "5756675df9e03a5be680e365", 
        "zip" : "34190", 
        "district" : "Warin Chamrap", 
        "province" : "Na Tan"
    },
    { 
        "_id" : "5756675df9e03a5be680e366", 
        "zip" : "34250", 
        "district" : "Si Muang Mai", 
        "province" : "Na Tan"
    },
    { 
        "_id" : "5756675df9e03a5be680e367", 
        "zip" : "34260", 
        "district" : "Nam Yuen", 
        "province" : "Na Tan"
    },
    { 
        "_id" : "5756675df9e03a5be680e368", 
        "zip" : "34260", 
        "district" : "Nam Khun", 
        "province" : "Na Tan"
    },
    { 
        "_id" : "5756675df9e03a5be680e369", 
        "zip" : "34330", 
        "district" : "Tan Sum", 
        "province" : "Na Tan"
    },
    { 
        "_id" : "5756675df9e03a5be680e36a", 
        "zip" : "34340", 
        "district" : "Po Sai", 
        "province" : "Na Tan"
    },
    { 
        "_id" : "5756675df9e03a5be680e36b", 
        "zip" : "34350", 
        "district" : "Sirinhon", 
        "province" : "Na Tan"
    },
    { 
        "_id" : "5756675df9e03a5be680e36c", 
        "zip" : "34360", 
        "district" : "Samrong", 
        "province" : "Na Tan"
    },
    { 
        "_id" : "5756675df9e03a5be680e36d", 
        "zip" : "39000", 
        "district" : "Mueang Nong Bua Lam Phu", 
        "province" : "Non Bua Lam Phu"
    },
    { 
        "_id" : "5756675df9e03a5be680e36e", 
        "zip" : "39140", 
        "district" : "Non Sang", 
        "province" : "Non Bua Lam Phu"
    },
    { 
        "_id" : "5756675df9e03a5be680e36f", 
        "zip" : "39140", 
        "district" : "Nong Sang", 
        "province" : "Non Bua Lam Phu"
    },
    { 
        "_id" : "5756675df9e03a5be680e370", 
        "zip" : "39170", 
        "district" : "Nawang", 
        "province" : "Non Bua Lam Phu"
    },
    { 
        "_id" : "5756675df9e03a5be680e371", 
        "zip" : "39170", 
        "district" : "Na Klang", 
        "province" : "Non Bua Lam Phu"
    },
    { 
        "_id" : "5756675df9e03a5be680e372", 
        "zip" : "39180", 
        "district" : "Si Bun Rueang", 
        "province" : "Non Bua Lam Phu"
    },
    { 
        "_id" : "5756675df9e03a5be680e373", 
        "zip" : "39270", 
        "district" : "Suwannakhuha", 
        "province" : "Non Bua Lam Phu"
    },
    { 
        "_id" : "5756675df9e03a5be680e374", 
        "zip" : "71000", 
        "district" : "Mueang Kanchanaburi", 
        "province" : "Khanchanaburi"
    },
    { 
        "_id" : "5756675df9e03a5be680e375", 
        "zip" : "71110", 
        "district" : "Tha Muang", 
        "province" : "Khanchanaburi"
    },
    { 
        "_id" : "5756675df9e03a5be680e376", 
        "zip" : "71120", 
        "district" : "Tha Maka", 
        "province" : "Khanchanaburi"
    },
    { 
        "_id" : "5756675df9e03a5be680e377", 
        "zip" : "71140", 
        "district" : "Phanom Thuan", 
        "province" : "Khanchanaburi"
    },
    { 
        "_id" : "5756675df9e03a5be680e378", 
        "zip" : "71150", 
        "district" : "Sai Yok", 
        "province" : "Khanchanaburi"
    },
    { 
        "_id" : "5756675df9e03a5be680e379", 
        "zip" : "71160", 
        "district" : "Bo Phloi", 
        "province" : "Khanchanaburi"
    },
    { 
        "_id" : "5756675df9e03a5be680e37a", 
        "zip" : "71170", 
        "district" : "Huai Khaiaw", 
        "province" : "Khanchanaburi"
    },
    { 
        "_id" : "5756675df9e03a5be680e37b", 
        "zip" : "71180", 
        "district" : "Thong Phaphum", 
        "province" : "Khanchanaburi"
    },
    { 
        "_id" : "5756675df9e03a5be680e37c", 
        "zip" : "71210", 
        "district" : "Lao Khwan", 
        "province" : "Khanchanaburi"
    },
    { 
        "_id" : "5756675df9e03a5be680e37d", 
        "zip" : "71220", 
        "district" : "Nong Prue", 
        "province" : "Khanchanaburi"
    },
    { 
        "_id" : "5756675df9e03a5be680e37e", 
        "zip" : "71240", 
        "district" : "Sangkhla Buri", 
        "province" : "Khanchanaburi"
    },
    { 
        "_id" : "5756675df9e03a5be680e37f", 
        "zip" : "71250", 
        "district" : "Si Sawat", 
        "province" : "Khanchanaburi"
    },
    { 
        "_id" : "5756675df9e03a5be680e380", 
        "zip" : "71260", 
        "district" : "Dan Makham Tia", 
        "province" : "Khanchanaburi"
    },
    { 
        "_id" : "5756675df9e03a5be680e381", 
        "zip" : "77000", 
        "district" : "Mueang prachuap Khirikan", 
        "province" : "Prachuap Khirikhan"
    },
    { 
        "_id" : "5756675df9e03a5be680e382", 
        "zip" : "77110", 
        "district" : "Hua Hin", 
        "province" : "Prachuap Khirikhan"
    },
    { 
        "_id" : "5756675df9e03a5be680e383", 
        "zip" : "77120", 
        "district" : "Pran Buri", 
        "province" : "Prachuap Khirikhan"
    },
    { 
        "_id" : "5756675df9e03a5be680e384", 
        "zip" : "77130", 
        "district" : "Thap Sakae", 
        "province" : "Prachuap Khirikhan"
    },
    { 
        "_id" : "5756675df9e03a5be680e385", 
        "zip" : "77140", 
        "district" : "Bang Saphan", 
        "province" : "Prachuap Khirikhan"
    },
    { 
        "_id" : "5756675df9e03a5be680e386", 
        "zip" : "77150", 
        "district" : "Kui Buri", 
        "province" : "Prachuap Khirikhan"
    },
    { 
        "_id" : "5756675df9e03a5be680e387", 
        "zip" : "77170", 
        "district" : "Bang Saphan Noi", 
        "province" : "Prachuap Khirikhan"
    },
    { 
        "_id" : "5756675df9e03a5be680e388", 
        "zip" : "77180", 
        "district" : "Sam Roi Yot", 
        "province" : "Prachuap Khirikhan"
    },
    { 
        "_id" : "5756675df9e03a5be680e389", 
        "zip" : "80000", 
        "district" : "Mueang Nakhon Si Thammarat", 
        "province" : "Nakhon Sie Thammarat"
    },
    { 
        "_id" : "5756675df9e03a5be680e38a", 
        "zip" : "80000", 
        "district" : "Phra Phrom", 
        "province" : "Nakhon Sie Thammarat"
    },
    { 
        "_id" : "5756675df9e03a5be680e38b", 
        "zip" : "80110", 
        "district" : "Thung Song", 
        "province" : "Nakhon Sie Thammarat"
    },
    { 
        "_id" : "5756675df9e03a5be680e38c", 
        "zip" : "80120", 
        "district" : "Sichon", 
        "province" : "Nakhon Sie Thammarat"
    },
    { 
        "_id" : "5756675df9e03a5be680e38d", 
        "zip" : "80130", 
        "district" : "Ron Phibun", 
        "province" : "Nakhon Sie Thammarat"
    },
    { 
        "_id" : "5756675df9e03a5be680e38e", 
        "zip" : "80130", 
        "district" : "Chulabhorn", 
        "province" : "Nakhon Sie Thammarat"
    },
    { 
        "_id" : "5756675df9e03a5be680e38f", 
        "zip" : "80140", 
        "district" : "Pak Phanang", 
        "province" : "Nakhon Sie Thammarat"
    },
    { 
        "_id" : "5756675df9e03a5be680e390", 
        "zip" : "80150", 
        "district" : "Chawang", 
        "province" : "Nakhon Sie Thammarat"
    },
    { 
        "_id" : "5756675df9e03a5be680e391", 
        "zip" : "80160", 
        "district" : "Nob Pitam", 
        "province" : "Nakhon Sie Thammarat"
    },
    { 
        "_id" : "5756675df9e03a5be680e392", 
        "zip" : "80160", 
        "district" : "Tha Sala", 
        "province" : "Nakhon Sie Thammarat"
    },
    { 
        "_id" : "5756675df9e03a5be680e393", 
        "zip" : "80170", 
        "district" : "Hua Sai", 
        "province" : "Nakhon Sie Thammarat"
    },
    { 
        "_id" : "5756675df9e03a5be680e394", 
        "zip" : "80180", 
        "district" : "Cha-uat", 
        "province" : "Nakhon Sie Thammarat"
    },
    { 
        "_id" : "5756675df9e03a5be680e395", 
        "zip" : "80190", 
        "district" : "Chian Yai", 
        "province" : "Nakhon Sie Thammarat"
    },
    { 
        "_id" : "5756675df9e03a5be680e396", 
        "zip" : "80190", 
        "district" : "Chaloem Phrakiat", 
        "province" : "Nakhon Sie Thammarat"
    },
    { 
        "_id" : "5756675df9e03a5be680e397", 
        "zip" : "80210", 
        "district" : "Khanom", 
        "province" : "Nakhon Sie Thammarat"
    },
    { 
        "_id" : "5756675df9e03a5be680e398", 
        "zip" : "80220", 
        "district" : "Na Bon", 
        "province" : "Nakhon Sie Thammarat"
    },
    { 
        "_id" : "5756675df9e03a5be680e399", 
        "zip" : "80230", 
        "district" : "Lan Saka", 
        "province" : "Nakhon Sie Thammarat"
    },
    { 
        "_id" : "5756675df9e03a5be680e39a", 
        "zip" : "80240", 
        "district" : "Thung Yai", 
        "province" : "Nakhon Sie Thammarat"
    },
    { 
        "_id" : "5756675df9e03a5be680e39b", 
        "zip" : "80250", 
        "district" : "Chang Klang", 
        "province" : "Nakhon Sie Thammarat"
    },
    { 
        "_id" : "5756675df9e03a5be680e39c", 
        "zip" : "80260", 
        "district" : "Tham Phannara", 
        "province" : "Nakhon Sie Thammarat"
    },
    { 
        "_id" : "5756675df9e03a5be680e39d", 
        "zip" : "80270", 
        "district" : "Phipun", 
        "province" : "Nakhon Sie Thammarat"
    },
    { 
        "_id" : "5756675df9e03a5be680e39e", 
        "zip" : "80320", 
        "district" : "Phromkhiri", 
        "province" : "Nakhon Sie Thammarat"
    },
    { 
        "_id" : "5756675df9e03a5be680e39f", 
        "zip" : "80360", 
        "district" : "Bang Khan", 
        "province" : "Nakhon Sie Thammarat"
    },
    { 
        "_id" : "5756675df9e03a5be680e3a0", 
        "zip" : "86000", 
        "district" : "Mueang Chumphon", 
        "province" : "Chumphon"
    },
    { 
        "_id" : "5756675df9e03a5be680e3a1", 
        "zip" : "86110", 
        "district" : "Lang Suan", 
        "province" : "Chumphon"
    },
    { 
        "_id" : "5756675df9e03a5be680e3a2", 
        "zip" : "86130", 
        "district" : "Sawi", 
        "province" : "Chumphon"
    },
    { 
        "_id" : "5756675df9e03a5be680e3a3", 
        "zip" : "86140", 
        "district" : "Tha Sae", 
        "province" : "Chumphon"
    },
    { 
        "_id" : "5756675df9e03a5be680e3a4", 
        "zip" : "86160", 
        "district" : "Pathio", 
        "province" : "Chumphon"
    },
    { 
        "_id" : "5756675df9e03a5be680e3a5", 
        "zip" : "86170", 
        "district" : "Lamae", 
        "province" : "Chumphon"
    },
    { 
        "_id" : "5756675df9e03a5be680e3a6", 
        "zip" : "86180", 
        "district" : "Phato", 
        "province" : "Chumphon"
    },
    { 
        "_id" : "5756675df9e03a5be680e3a7", 
        "zip" : "86220", 
        "district" : "Thung Tako", 
        "province" : "Chumphon"
    },
    { 
        "_id" : "5756675df9e03a5be680e3a8", 
        "zip" : "93000", 
        "district" : "Sri Nakharin", 
        "province" : "Phatthalung"
    },
    { 
        "_id" : "5756675df9e03a5be680e3a9", 
        "zip" : "93000", 
        "district" : "Mueang Phatthalung", 
        "province" : "Phatthalung"
    },
    { 
        "_id" : "5756675df9e03a5be680e3aa", 
        "zip" : "93110", 
        "district" : "Pa Phayom", 
        "province" : "Phatthalung"
    },
    { 
        "_id" : "5756675df9e03a5be680e3ab", 
        "zip" : "93110", 
        "district" : "Khuan Khanun", 
        "province" : "Phatthalung"
    },
    { 
        "_id" : "5756675df9e03a5be680e3ac", 
        "zip" : "93120", 
        "district" : "Pak Phayun", 
        "province" : "Phatthalung"
    },
    { 
        "_id" : "5756675df9e03a5be680e3ad", 
        "zip" : "93130", 
        "district" : "Khao Chaison", 
        "province" : "Phatthalung"
    },
    { 
        "_id" : "5756675df9e03a5be680e3ae", 
        "zip" : "93140", 
        "district" : "Bang Kaeo", 
        "province" : "Phatthalung"
    },
    { 
        "_id" : "5756675df9e03a5be680e3af", 
        "zip" : "93160", 
        "district" : "Tamot", 
        "province" : "Phatthalung"
    },
    { 
        "_id" : "5756675df9e03a5be680e3b0", 
        "zip" : "93170", 
        "district" : "Pa Bon", 
        "province" : "Phatthalung"
    },
    { 
        "_id" : "5756675df9e03a5be680e3b1", 
        "zip" : "93180", 
        "district" : "Kong Ra", 
        "province" : "Phatthalung"
    },
    { 
        "_id" : "5756675df9e03a5be680e3b2", 
        "zip" : "93190", 
        "district" : "Si Ban Phot", 
        "province" : "Phatthalung"
    }
]